{
  "version": 0.6,
  "generator": "Overpass API 0.7.61.5 4133829e",
  "osm3s": {
    "timestamp_osm_base": "2023-09-05T14:26:15Z",
    "timestamp_areas_base": "2023-09-05T13:08:30Z",
    "copyright": "The data included in this document is from www.openstreetmap.org. The data is made available under ODbL."
  },
  "elements": [

{
  "type": "node",
  "id": 335776642,
  "lat": 54.0656082,
  "lon": 12.1178092,
  "tags": {
    "amenity": "waste_disposal",
    "location": "overground"
  }
},
{
  "type": "node",
  "id": 460891232,
  "lat": 53.3032647,
  "lon": 12.8145186,
  "tags": {
    "amenity": "waste_disposal"
  }
},
{
  "type": "node",
  "id": 460891237,
  "lat": 53.3028444,
  "lon": 12.8154991,
  "tags": {
    "amenity": "waste_disposal"
  }
},
{
  "type": "node",
  "id": 460891244,
  "lat": 53.3039633,
  "lon": 12.8150604,
  "tags": {
    "amenity": "waste_disposal"
  }
},
{
  "type": "node",
  "id": 460891297,
  "lat": 53.3039623,
  "lon": 12.8168707,
  "tags": {
    "amenity": "waste_disposal"
  }
},
{
  "type": "node",
  "id": 460891301,
  "lat": 53.3027287,
  "lon": 12.8167971,
  "tags": {
    "amenity": "waste_disposal"
  }
},
{
  "type": "node",
  "id": 460891306,
  "lat": 53.3030926,
  "lon": 12.8130071,
  "tags": {
    "amenity": "waste_disposal"
  }
},
{
  "type": "node",
  "id": 461655378,
  "lat": 53.3031397,
  "lon": 12.8121798,
  "tags": {
    "amenity": "waste_disposal",
    "waste": "trash"
  }
},
{
  "type": "node",
  "id": 461655910,
  "lat": 53.3010700,
  "lon": 12.8123026,
  "tags": {
    "amenity": "waste_disposal"
  }
},
{
  "type": "node",
  "id": 461655911,
  "lat": 53.3007415,
  "lon": 12.8122820,
  "tags": {
    "amenity": "waste_disposal"
  }
},
{
  "type": "node",
  "id": 474767475,
  "lat": 53.8966749,
  "lon": 11.4549617,
  "tags": {
    "amenity": "waste_disposal",
    "operator": "Sportbootservice Westhafen"
  }
},
{
  "type": "node",
  "id": 477933209,
  "lat": 53.3036583,
  "lon": 12.8096289,
  "tags": {
    "amenity": "waste_disposal"
  }
},
{
  "type": "node",
  "id": 822596340,
  "lat": 54.0904057,
  "lon": 12.1088459,
  "tags": {
    "amenity": "waste_disposal",
    "location": "overground"
  }
},
{
  "type": "node",
  "id": 824537129,
  "lat": 53.2232565,
  "lon": 12.8380870,
  "tags": {
    "access": "permissive",
    "amenity": "waste_disposal",
    "ele": "67.9"
  }
},
{
  "type": "node",
  "id": 840708400,
  "lat": 54.4337392,
  "lon": 13.5730165,
  "tags": {
    "amenity": "waste_disposal"
  }
},
{
  "type": "node",
  "id": 853780678,
  "lat": 53.4978432,
  "lon": 12.6638715,
  "tags": {
    "access": "customers",
    "amenity": "waste_disposal",
    "fixme": "position",
    "operator": "Campingplatz Ecktannen"
  }
},
{
  "type": "node",
  "id": 897442001,
  "lat": 53.4801060,
  "lon": 12.6267366,
  "tags": {
    "amenity": "waste_disposal",
    "location": "overground"
  }
},
{
  "type": "node",
  "id": 1281137479,
  "lat": 54.0970631,
  "lon": 12.1031046,
  "tags": {
    "amenity": "waste_disposal",
    "recycling:glass": "yes"
  }
},
{
  "type": "node",
  "id": 1709817576,
  "lat": 53.5676877,
  "lon": 13.2574702,
  "tags": {
    "amenity": "waste_disposal"
  }
},
{
  "type": "node",
  "id": 1822204672,
  "lat": 54.3795781,
  "lon": 12.6602383,
  "tags": {
    "amenity": "waste_disposal"
  }
},
{
  "type": "node",
  "id": 1868424458,
  "lat": 53.8615394,
  "lon": 11.6908983,
  "tags": {
    "amenity": "waste_disposal"
  }
},
{
  "type": "node",
  "id": 1868424466,
  "lat": 53.8617830,
  "lon": 11.6900671,
  "tags": {
    "amenity": "waste_disposal"
  }
},
{
  "type": "node",
  "id": 1868424524,
  "lat": 53.8621141,
  "lon": 11.6918491,
  "tags": {
    "amenity": "waste_disposal"
  }
},
{
  "type": "node",
  "id": 1868424638,
  "lat": 53.8625767,
  "lon": 11.6917816,
  "tags": {
    "amenity": "waste_disposal"
  }
},
{
  "type": "node",
  "id": 1868424641,
  "lat": 53.8625960,
  "lon": 11.6897653,
  "tags": {
    "amenity": "waste_disposal"
  }
},
{
  "type": "node",
  "id": 1868424755,
  "lat": 53.8632726,
  "lon": 11.6908470,
  "tags": {
    "amenity": "waste_disposal"
  }
},
{
  "type": "node",
  "id": 1890545985,
  "lat": 53.3403526,
  "lon": 13.0985044,
  "tags": {
    "amenity": "waste_disposal"
  }
},
{
  "type": "node",
  "id": 1890545986,
  "lat": 53.3403529,
  "lon": 13.0979751,
  "tags": {
    "amenity": "waste_disposal"
  }
},
{
  "type": "node",
  "id": 1890546110,
  "lat": 53.3417265,
  "lon": 13.0980030,
  "tags": {
    "amenity": "waste_disposal"
  }
},
{
  "type": "node",
  "id": 2284509908,
  "lat": 54.2604769,
  "lon": 13.4064817,
  "tags": {
    "amenity": "waste_disposal"
  }
},
{
  "type": "node",
  "id": 2400290273,
  "lat": 53.2202916,
  "lon": 13.0421579,
  "tags": {
    "amenity": "waste_disposal"
  }
},
{
  "type": "node",
  "id": 2400357971,
  "lat": 53.2759346,
  "lon": 12.8124664,
  "tags": {
    "amenity": "waste_disposal",
    "fee": "yes"
  }
},
{
  "type": "node",
  "id": 2401176018,
  "lat": 53.4629630,
  "lon": 12.7988763,
  "tags": {
    "amenity": "waste_disposal"
  }
},
{
  "type": "node",
  "id": 2401198070,
  "lat": 53.5133000,
  "lon": 12.6938656,
  "tags": {
    "amenity": "waste_disposal"
  }
},
{
  "type": "node",
  "id": 2809648094,
  "lat": 54.1555235,
  "lon": 12.0662679,
  "tags": {
    "amenity": "waste_disposal"
  }
},
{
  "type": "node",
  "id": 2812153938,
  "lat": 53.6967011,
  "lon": 11.4378180,
  "tags": {
    "amenity": "waste_disposal"
  }
},
{
  "type": "node",
  "id": 3112510691,
  "lat": 54.0924478,
  "lon": 12.0956708,
  "tags": {
    "amenity": "waste_disposal"
  }
},
{
  "type": "node",
  "id": 3114504150,
  "lat": 53.6475733,
  "lon": 11.4281479,
  "tags": {
    "amenity": "waste_disposal",
    "waste": "grey_water"
  }
},
{
  "type": "node",
  "id": 3184908666,
  "lat": 54.0700487,
  "lon": 12.1197174,
  "tags": {
    "access": "private",
    "amenity": "waste_disposal"
  }
},
{
  "type": "node",
  "id": 3292241466,
  "lat": 53.4212733,
  "lon": 11.8280072,
  "tags": {
    "amenity": "waste_disposal"
  }
},
{
  "type": "node",
  "id": 3398022314,
  "lat": 54.0859975,
  "lon": 12.1084104,
  "tags": {
    "amenity": "waste_disposal"
  }
},
{
  "type": "node",
  "id": 3666330402,
  "lat": 54.0922518,
  "lon": 12.1252100,
  "tags": {
    "amenity": "waste_disposal"
  }
},
{
  "type": "node",
  "id": 3666330403,
  "lat": 54.0922554,
  "lon": 12.1256263,
  "tags": {
    "amenity": "waste_disposal"
  }
},
{
  "type": "node",
  "id": 3666330404,
  "lat": 54.0922598,
  "lon": 12.1247752,
  "tags": {
    "amenity": "waste_disposal"
  }
},
{
  "type": "node",
  "id": 3723390609,
  "lat": 54.5833987,
  "lon": 13.1100407,
  "tags": {
    "amenity": "waste_disposal"
  }
},
{
  "type": "node",
  "id": 3835966552,
  "lat": 54.0858350,
  "lon": 12.1452584,
  "tags": {
    "amenity": "waste_disposal"
  }
},
{
  "type": "node",
  "id": 3835967057,
  "lat": 54.0858590,
  "lon": 12.1454281,
  "tags": {
    "amenity": "waste_disposal"
  }
},
{
  "type": "node",
  "id": 4097060336,
  "lat": 53.4738625,
  "lon": 12.5150394,
  "tags": {
    "amenity": "waste_disposal"
  }
},
{
  "type": "node",
  "id": 4314906477,
  "lat": 54.0462859,
  "lon": 14.0111486,
  "tags": {
    "amenity": "waste_disposal"
  }
},
{
  "type": "node",
  "id": 4628001528,
  "lat": 53.6364301,
  "lon": 11.3917151,
  "tags": {
    "amenity": "waste_disposal"
  }
},
{
  "type": "node",
  "id": 4828763322,
  "lat": 54.1530884,
  "lon": 12.0584174,
  "tags": {
    "amenity": "waste_disposal"
  }
},
{
  "type": "node",
  "id": 4963625123,
  "lat": 53.9338361,
  "lon": 14.1948641,
  "tags": {
    "amenity": "waste_disposal"
  }
},
{
  "type": "node",
  "id": 5113759012,
  "lat": 54.3549371,
  "lon": 13.6829457,
  "tags": {
    "amenity": "waste_disposal",
    "waste_basket:excrement_bags": "yes"
  }
},
{
  "type": "node",
  "id": 5133706656,
  "lat": 54.1104129,
  "lon": 12.1375498,
  "tags": {
    "amenity": "waste_disposal"
  }
},
{
  "type": "node",
  "id": 5133706661,
  "lat": 54.1108859,
  "lon": 12.1410564,
  "tags": {
    "amenity": "waste_disposal"
  }
},
{
  "type": "node",
  "id": 5139521238,
  "lat": 53.9213625,
  "lon": 14.0305318,
  "tags": {
    "amenity": "waste_disposal",
    "operator": "Wertstoffhof Neppermin (OVP)"
  }
},
{
  "type": "node",
  "id": 5217967756,
  "lat": 54.1440962,
  "lon": 12.0628689,
  "tags": {
    "amenity": "waste_disposal"
  }
},
{
  "type": "node",
  "id": 5567779757,
  "lat": 53.6307491,
  "lon": 14.0066547,
  "tags": {
    "amenity": "waste_disposal"
  }
},
{
  "type": "node",
  "id": 5644019483,
  "lat": 53.4982881,
  "lon": 12.2126638,
  "tags": {
    "amenity": "waste_disposal"
  }
},
{
  "type": "node",
  "id": 5644021095,
  "lat": 53.4058322,
  "lon": 12.1207309,
  "tags": {
    "amenity": "waste_disposal"
  }
},
{
  "type": "node",
  "id": 5739602356,
  "lat": 53.3047004,
  "lon": 12.7333215,
  "tags": {
    "access": "private",
    "amenity": "waste_disposal",
    "description": "Müllpfandstation",
    "opening_hours": "\"only Fusion Festival\""
  }
},
{
  "type": "node",
  "id": 5751056824,
  "lat": 54.0903260,
  "lon": 12.0975701,
  "tags": {
    "access": "private",
    "amenity": "waste_disposal"
  }
},
{
  "type": "node",
  "id": 5751063284,
  "lat": 54.0864805,
  "lon": 12.0938704,
  "tags": {
    "access": "private",
    "amenity": "waste_disposal"
  }
},
{
  "type": "node",
  "id": 5751063357,
  "lat": 54.0879637,
  "lon": 12.0954873,
  "tags": {
    "access": "private",
    "amenity": "waste_disposal"
  }
},
{
  "type": "node",
  "id": 5751064005,
  "lat": 54.0882640,
  "lon": 12.0957604,
  "tags": {
    "access": "private",
    "amenity": "waste_disposal"
  }
},
{
  "type": "node",
  "id": 5751064030,
  "lat": 54.0887069,
  "lon": 12.0961175,
  "tags": {
    "access": "private",
    "amenity": "waste_disposal"
  }
},
{
  "type": "node",
  "id": 5751066022,
  "lat": 54.0875659,
  "lon": 12.0951688,
  "tags": {
    "access": "private",
    "amenity": "waste_disposal"
  }
},
{
  "type": "node",
  "id": 5751068080,
  "lat": 54.0870518,
  "lon": 12.0941281,
  "tags": {
    "access": "private",
    "amenity": "waste_disposal"
  }
},
{
  "type": "node",
  "id": 5751070281,
  "lat": 54.0868599,
  "lon": 12.0939500,
  "tags": {
    "access": "private",
    "amenity": "waste_disposal"
  }
},
{
  "type": "node",
  "id": 5751091247,
  "lat": 54.0829623,
  "lon": 12.0904951,
  "tags": {
    "amenity": "waste_disposal"
  }
},
{
  "type": "node",
  "id": 5751091848,
  "lat": 54.0841183,
  "lon": 12.0912784,
  "tags": {
    "access": "private",
    "amenity": "waste_disposal"
  }
},
{
  "type": "node",
  "id": 5751092217,
  "lat": 54.0837392,
  "lon": 12.0908158,
  "tags": {
    "access": "private",
    "amenity": "waste_disposal"
  }
},
{
  "type": "node",
  "id": 5751103091,
  "lat": 54.0906039,
  "lon": 12.0978365,
  "tags": {
    "access": "private",
    "amenity": "waste_disposal"
  }
},
{
  "type": "node",
  "id": 5751106363,
  "lat": 54.0907005,
  "lon": 12.0978897,
  "tags": {
    "access": "private",
    "amenity": "waste_disposal"
  }
},
{
  "type": "node",
  "id": 5751106962,
  "lat": 54.0909775,
  "lon": 12.0981374,
  "tags": {
    "access": "private",
    "amenity": "waste_disposal"
  }
},
{
  "type": "node",
  "id": 5751108100,
  "lat": 54.0913168,
  "lon": 12.0984110,
  "tags": {
    "access": "private",
    "amenity": "waste_disposal"
  }
},
{
  "type": "node",
  "id": 5751117399,
  "lat": 54.0816888,
  "lon": 12.0974744,
  "tags": {
    "amenity": "waste_disposal"
  }
},
{
  "type": "node",
  "id": 5752126982,
  "lat": 54.0859791,
  "lon": 12.1074936,
  "tags": {
    "amenity": "waste_disposal"
  }
},
{
  "type": "node",
  "id": 5753167109,
  "lat": 54.0897509,
  "lon": 12.0982609,
  "tags": {
    "amenity": "waste_disposal"
  }
},
{
  "type": "node",
  "id": 5753203755,
  "lat": 54.0857230,
  "lon": 12.1005141,
  "tags": {
    "access": "private",
    "amenity": "waste_disposal"
  }
},
{
  "type": "node",
  "id": 5753204878,
  "lat": 54.0868370,
  "lon": 12.1000693,
  "tags": {
    "access": "private",
    "amenity": "waste_disposal"
  }
},
{
  "type": "node",
  "id": 5753205916,
  "lat": 54.0867462,
  "lon": 12.0990341,
  "tags": {
    "access": "private",
    "amenity": "waste_disposal"
  }
},
{
  "type": "node",
  "id": 5753206364,
  "lat": 54.0867399,
  "lon": 12.0986511,
  "tags": {
    "access": "private",
    "amenity": "waste_disposal"
  }
},
{
  "type": "node",
  "id": 5753208366,
  "lat": 54.0866729,
  "lon": 12.0976443,
  "tags": {
    "access": "private",
    "amenity": "waste_disposal"
  }
},
{
  "type": "node",
  "id": 5753210421,
  "lat": 54.0866332,
  "lon": 12.0971455,
  "tags": {
    "access": "private",
    "amenity": "waste_disposal"
  }
},
{
  "type": "node",
  "id": 5753210610,
  "lat": 54.0865892,
  "lon": 12.0962465,
  "tags": {
    "access": "private",
    "amenity": "waste_disposal"
  }
},
{
  "type": "node",
  "id": 5753212442,
  "lat": 54.0870931,
  "lon": 12.0957812,
  "tags": {
    "access": "private",
    "amenity": "waste_disposal"
  }
},
{
  "type": "node",
  "id": 5753213840,
  "lat": 54.0872268,
  "lon": 12.0962268,
  "tags": {
    "access": "private",
    "amenity": "waste_disposal"
  }
},
{
  "type": "node",
  "id": 5753215194,
  "lat": 54.0875984,
  "lon": 12.0966188,
  "tags": {
    "access": "private",
    "amenity": "waste_disposal"
  }
},
{
  "type": "node",
  "id": 5753218422,
  "lat": 54.0882981,
  "lon": 12.0971663,
  "tags": {
    "access": "private",
    "amenity": "waste_disposal"
  }
},
{
  "type": "node",
  "id": 5753218434,
  "lat": 54.0878992,
  "lon": 12.0968614,
  "tags": {
    "access": "private",
    "amenity": "waste_disposal"
  }
},
{
  "type": "node",
  "id": 5753464490,
  "lat": 54.1111034,
  "lon": 11.9721111,
  "tags": {
    "amenity": "waste_disposal"
  }
},
{
  "type": "node",
  "id": 5753962801,
  "lat": 54.0885723,
  "lon": 12.0954947,
  "tags": {
    "access": "private",
    "amenity": "waste_disposal"
  }
},
{
  "type": "node",
  "id": 5753962803,
  "lat": 54.0888453,
  "lon": 12.0957346,
  "tags": {
    "access": "private",
    "amenity": "waste_disposal"
  }
},
{
  "type": "node",
  "id": 5753963326,
  "lat": 54.0887619,
  "lon": 12.0956679,
  "tags": {
    "access": "private",
    "amenity": "waste_disposal"
  }
},
{
  "type": "node",
  "id": 5753963428,
  "lat": 54.0890457,
  "lon": 12.0959310,
  "tags": {
    "access": "private",
    "amenity": "waste_disposal"
  }
},
{
  "type": "node",
  "id": 5753963429,
  "lat": 54.0892073,
  "lon": 12.0960704,
  "tags": {
    "access": "private",
    "amenity": "waste_disposal"
  }
},
{
  "type": "node",
  "id": 5753978128,
  "lat": 54.0863946,
  "lon": 12.1035800,
  "tags": {
    "access": "private",
    "amenity": "waste_disposal"
  }
},
{
  "type": "node",
  "id": 5754098071,
  "lat": 54.0852215,
  "lon": 12.1220776,
  "tags": {
    "access": "private",
    "amenity": "waste_disposal"
  }
},
{
  "type": "node",
  "id": 5754460282,
  "lat": 54.0885848,
  "lon": 12.1007523,
  "tags": {
    "access": "private",
    "amenity": "waste_disposal"
  }
},
{
  "type": "node",
  "id": 5754482559,
  "lat": 54.0887612,
  "lon": 12.1001677,
  "tags": {
    "access": "private",
    "amenity": "waste_disposal"
  }
},
{
  "type": "node",
  "id": 5754485911,
  "lat": 54.0884118,
  "lon": 12.1012645,
  "tags": {
    "access": "private",
    "amenity": "waste_disposal"
  }
},
{
  "type": "node",
  "id": 5754488267,
  "lat": 54.0889860,
  "lon": 12.0994908,
  "tags": {
    "access": "private",
    "amenity": "waste_disposal"
  }
},
{
  "type": "node",
  "id": 5754488752,
  "lat": 54.0891394,
  "lon": 12.0990377,
  "tags": {
    "access": "private",
    "amenity": "waste_disposal"
  }
},
{
  "type": "node",
  "id": 5754490432,
  "lat": 54.0893135,
  "lon": 12.0984598,
  "tags": {
    "access": "private",
    "amenity": "waste_disposal"
  }
},
{
  "type": "node",
  "id": 5754490446,
  "lat": 54.0892261,
  "lon": 12.0987571,
  "tags": {
    "access": "private",
    "amenity": "waste_disposal"
  }
},
{
  "type": "node",
  "id": 5754491511,
  "lat": 54.0890582,
  "lon": 12.0993046,
  "tags": {
    "access": "private",
    "amenity": "waste_disposal"
  }
},
{
  "type": "node",
  "id": 5754515855,
  "lat": 54.0942434,
  "lon": 12.1061328,
  "tags": {
    "access": "private",
    "amenity": "waste_disposal"
  }
},
{
  "type": "node",
  "id": 5788013249,
  "lat": 54.1326926,
  "lon": 12.0644828,
  "tags": {
    "amenity": "waste_disposal"
  }
},
{
  "type": "node",
  "id": 5788938382,
  "lat": 54.0888741,
  "lon": 12.1003376,
  "tags": {
    "access": "private",
    "amenity": "waste_disposal"
  }
},
{
  "type": "node",
  "id": 5788938383,
  "lat": 54.0892300,
  "lon": 12.0993064,
  "tags": {
    "access": "private",
    "amenity": "waste_disposal"
  }
},
{
  "type": "node",
  "id": 5788938384,
  "lat": 54.0895509,
  "lon": 12.0983512,
  "tags": {
    "amenity": "waste_disposal"
  }
},
{
  "type": "node",
  "id": 5788938468,
  "lat": 54.0891381,
  "lon": 12.0994872,
  "tags": {
    "access": "private",
    "amenity": "waste_disposal"
  }
},
{
  "type": "node",
  "id": 5789015400,
  "lat": 54.0906372,
  "lon": 12.0991001,
  "tags": {
    "access": "private",
    "amenity": "waste_disposal"
  }
},
{
  "type": "node",
  "id": 5789025594,
  "lat": 54.0905033,
  "lon": 12.0989898,
  "tags": {
    "access": "private",
    "amenity": "waste_disposal"
  }
},
{
  "type": "node",
  "id": 5789026325,
  "lat": 54.0907817,
  "lon": 12.0992267,
  "tags": {
    "access": "private",
    "amenity": "waste_disposal"
  }
},
{
  "type": "node",
  "id": 5794282867,
  "lat": 54.0837021,
  "lon": 12.1058912,
  "tags": {
    "access": "private",
    "amenity": "waste_disposal"
  }
},
{
  "type": "node",
  "id": 5794389236,
  "lat": 54.0842916,
  "lon": 12.1065886,
  "tags": {
    "amenity": "waste_disposal"
  }
},
{
  "type": "node",
  "id": 5794393308,
  "lat": 54.0843242,
  "lon": 12.1066630,
  "tags": {
    "amenity": "waste_disposal"
  }
},
{
  "type": "node",
  "id": 5819678033,
  "lat": 54.3200626,
  "lon": 13.0707468,
  "tags": {
    "amenity": "waste_disposal",
    "name": "Papiercontainer"
  }
},
{
  "type": "node",
  "id": 5827563168,
  "lat": 54.0915633,
  "lon": 12.0990104,
  "tags": {
    "access": "private",
    "amenity": "waste_disposal"
  }
},
{
  "type": "node",
  "id": 5839891049,
  "lat": 54.1996686,
  "lon": 12.1512889,
  "tags": {
    "amenity": "waste_disposal"
  }
},
{
  "type": "node",
  "id": 5861683837,
  "lat": 53.7393956,
  "lon": 14.0571703,
  "tags": {
    "amenity": "waste_disposal"
  }
},
{
  "type": "node",
  "id": 5893448023,
  "lat": 53.6194245,
  "lon": 12.3723340,
  "tags": {
    "amenity": "waste_disposal"
  }
},
{
  "type": "node",
  "id": 5893448024,
  "lat": 53.6196768,
  "lon": 12.3710672,
  "tags": {
    "amenity": "waste_disposal"
  }
},
{
  "type": "node",
  "id": 5893448025,
  "lat": 53.6188817,
  "lon": 12.3693574,
  "tags": {
    "amenity": "waste_disposal"
  }
},
{
  "type": "node",
  "id": 5978130422,
  "lat": 54.0811522,
  "lon": 13.4056009,
  "tags": {
    "amenity": "waste_disposal",
    "waste": "trash"
  }
},
{
  "type": "node",
  "id": 5978130423,
  "lat": 54.0807639,
  "lon": 13.4058349,
  "tags": {
    "amenity": "waste_disposal",
    "waste": "trash"
  }
},
{
  "type": "node",
  "id": 5978130424,
  "lat": 54.0800330,
  "lon": 13.4057537,
  "tags": {
    "amenity": "waste_disposal",
    "waste": "trash"
  }
},
{
  "type": "node",
  "id": 5978130425,
  "lat": 54.0802328,
  "lon": 13.4059274,
  "tags": {
    "amenity": "waste_disposal",
    "waste": "trash"
  }
},
{
  "type": "node",
  "id": 5997134401,
  "lat": 54.0903024,
  "lon": 12.1397641,
  "tags": {
    "amenity": "waste_disposal",
    "waste": "trash"
  }
},
{
  "type": "node",
  "id": 5997134402,
  "lat": 54.0907186,
  "lon": 12.1396196,
  "tags": {
    "amenity": "waste_disposal",
    "waste": "trash"
  }
},
{
  "type": "node",
  "id": 5997134423,
  "lat": 54.0920501,
  "lon": 12.1416723,
  "tags": {
    "amenity": "waste_disposal",
    "waste": "trash"
  }
},
{
  "type": "node",
  "id": 5997134439,
  "lat": 54.0897206,
  "lon": 12.1421474,
  "tags": {
    "amenity": "waste_disposal",
    "waste": "trash"
  }
},
{
  "type": "node",
  "id": 5997134440,
  "lat": 54.0897518,
  "lon": 12.1431850,
  "tags": {
    "amenity": "waste_disposal",
    "waste": "trash"
  }
},
{
  "type": "node",
  "id": 6048250760,
  "lat": 54.0997638,
  "lon": 12.0758239,
  "tags": {
    "amenity": "waste_disposal",
    "waste": "trash"
  }
},
{
  "type": "node",
  "id": 6050701671,
  "lat": 54.0952818,
  "lon": 12.0724794,
  "tags": {
    "access": "private",
    "amenity": "waste_disposal"
  }
},
{
  "type": "node",
  "id": 6050709165,
  "lat": 54.0969251,
  "lon": 12.0722190,
  "tags": {
    "access": "private",
    "amenity": "waste_disposal"
  }
},
{
  "type": "node",
  "id": 6051604648,
  "lat": 54.0994784,
  "lon": 12.0683410,
  "tags": {
    "access": "private",
    "amenity": "waste_disposal"
  }
},
{
  "type": "node",
  "id": 6072793185,
  "lat": 54.0918258,
  "lon": 12.1039381,
  "tags": {
    "amenity": "waste_disposal"
  }
},
{
  "type": "node",
  "id": 6090825447,
  "lat": 54.0854071,
  "lon": 12.0984092,
  "tags": {
    "amenity": "waste_disposal"
  }
},
{
  "type": "node",
  "id": 6090827466,
  "lat": 54.0843277,
  "lon": 12.0973452,
  "tags": {
    "amenity": "waste_disposal"
  }
},
{
  "type": "node",
  "id": 6109996643,
  "lat": 54.0902738,
  "lon": 12.0987251,
  "tags": {
    "amenity": "waste_disposal"
  }
},
{
  "type": "node",
  "id": 6110006354,
  "lat": 54.0900027,
  "lon": 12.0985032,
  "tags": {
    "amenity": "waste_disposal"
  }
},
{
  "type": "node",
  "id": 6110006612,
  "lat": 54.0901332,
  "lon": 12.0985982,
  "tags": {
    "amenity": "waste_disposal"
  }
},
{
  "type": "node",
  "id": 6150363633,
  "lat": 54.0909390,
  "lon": 12.0898998,
  "tags": {
    "amenity": "waste_disposal"
  }
},
{
  "type": "node",
  "id": 6150363657,
  "lat": 54.0923851,
  "lon": 12.0937263,
  "tags": {
    "amenity": "waste_disposal"
  }
},
{
  "type": "node",
  "id": 6150367066,
  "lat": 54.0823934,
  "lon": 12.1153158,
  "tags": {
    "amenity": "waste_disposal"
  }
},
{
  "type": "node",
  "id": 6150367730,
  "lat": 54.0907665,
  "lon": 12.0894463,
  "tags": {
    "access": "private",
    "amenity": "waste_disposal"
  }
},
{
  "type": "node",
  "id": 6150367911,
  "lat": 54.0904447,
  "lon": 12.0886906,
  "tags": {
    "access": "private",
    "amenity": "waste_disposal"
  }
},
{
  "type": "node",
  "id": 6150367945,
  "lat": 54.0916774,
  "lon": 12.0918304,
  "tags": {
    "amenity": "waste_disposal"
  }
},
{
  "type": "node",
  "id": 6150368041,
  "lat": 54.0918575,
  "lon": 12.0923040,
  "tags": {
    "amenity": "waste_disposal"
  }
},
{
  "type": "node",
  "id": 6150368262,
  "lat": 54.0913317,
  "lon": 12.0909183,
  "tags": {
    "amenity": "waste_disposal"
  }
},
{
  "type": "node",
  "id": 6150368385,
  "lat": 54.0911114,
  "lon": 12.0903103,
  "tags": {
    "amenity": "waste_disposal"
  }
},
{
  "type": "node",
  "id": 6150368623,
  "lat": 54.0915109,
  "lon": 12.0913870,
  "tags": {
    "amenity": "waste_disposal"
  }
},
{
  "type": "node",
  "id": 6150368964,
  "lat": 54.0920329,
  "lon": 12.0927818,
  "tags": {
    "amenity": "waste_disposal"
  }
},
{
  "type": "node",
  "id": 6150368965,
  "lat": 54.0921992,
  "lon": 12.0932492,
  "tags": {
    "amenity": "waste_disposal"
  }
},
{
  "type": "node",
  "id": 6150369001,
  "lat": 54.0925752,
  "lon": 12.0942171,
  "tags": {
    "amenity": "waste_disposal"
  }
},
{
  "type": "node",
  "id": 6150369191,
  "lat": 54.0927208,
  "lon": 12.0946590,
  "tags": {
    "amenity": "waste_disposal"
  }
},
{
  "type": "node",
  "id": 6150369891,
  "lat": 54.0929189,
  "lon": 12.0951279,
  "tags": {
    "amenity": "waste_disposal"
  }
},
{
  "type": "node",
  "id": 6150370271,
  "lat": 54.1361112,
  "lon": 12.0523943,
  "tags": {
    "amenity": "waste_disposal"
  }
},
{
  "type": "node",
  "id": 6150370280,
  "lat": 54.1370173,
  "lon": 12.0523596,
  "tags": {
    "amenity": "waste_disposal"
  }
},
{
  "type": "node",
  "id": 6150370412,
  "lat": 54.1357727,
  "lon": 12.0523538,
  "tags": {
    "amenity": "waste_disposal"
  }
},
{
  "type": "node",
  "id": 6150370413,
  "lat": 54.1365766,
  "lon": 12.0523896,
  "tags": {
    "amenity": "waste_disposal"
  }
},
{
  "type": "node",
  "id": 6190075795,
  "lat": 54.4481974,
  "lon": 13.5602456,
  "tags": {
    "amenity": "waste_disposal"
  }
},
{
  "type": "node",
  "id": 6329246070,
  "lat": 54.3703139,
  "lon": 13.0276602,
  "tags": {
    "amenity": "waste_disposal",
    "collection_times": "Mo-Su 7:00-18:00",
    "operator": "Veolia",
    "recycling:glass": "yes"
  }
},
{
  "type": "node",
  "id": 6403056831,
  "lat": 54.0802643,
  "lon": 13.8956284,
  "tags": {
    "amenity": "waste_disposal",
    "operator": "Feriendorf Strandkiefer",
    "waste": "trash"
  }
},
{
  "type": "node",
  "id": 6429178158,
  "lat": 53.3025667,
  "lon": 12.8105435,
  "tags": {
    "amenity": "waste_disposal"
  }
},
{
  "type": "node",
  "id": 6465088653,
  "lat": 53.3874783,
  "lon": 12.6174408,
  "tags": {
    "amenity": "waste_disposal",
    "waste": "trash"
  }
},
{
  "type": "node",
  "id": 6516610288,
  "lat": 53.4878490,
  "lon": 13.0955331,
  "tags": {
    "amenity": "waste_disposal",
    "operator": "Seeweide Naturcampingplatz Penzlin"
  }
},
{
  "type": "node",
  "id": 6566374150,
  "lat": 53.6028528,
  "lon": 11.4277902,
  "tags": {
    "amenity": "waste_disposal"
  }
},
{
  "type": "node",
  "id": 6586154005,
  "lat": 54.3569412,
  "lon": 13.4809771,
  "tags": {
    "amenity": "waste_disposal"
  }
},
{
  "type": "node",
  "id": 6615824639,
  "lat": 53.2428967,
  "lon": 12.9525214,
  "tags": {
    "amenity": "waste_disposal",
    "waste": "trash"
  }
},
{
  "type": "node",
  "id": 6734856415,
  "lat": 54.1114325,
  "lon": 12.1556596,
  "tags": {
    "access": "private",
    "amenity": "waste_disposal",
    "waste": "trash"
  }
},
{
  "type": "node",
  "id": 6830766193,
  "lat": 53.3201284,
  "lon": 12.5303552,
  "tags": {
    "amenity": "waste_disposal",
    "waste": "Grünschnitt"
  }
},
{
  "type": "node",
  "id": 7040300826,
  "lat": 54.0868468,
  "lon": 12.1084647,
  "tags": {
    "amenity": "waste_disposal"
  }
},
{
  "type": "node",
  "id": 7040311919,
  "lat": 54.0869663,
  "lon": 12.1082846,
  "tags": {
    "amenity": "waste_disposal"
  }
},
{
  "type": "node",
  "id": 7040315456,
  "lat": 54.0871327,
  "lon": 12.1079513,
  "tags": {
    "amenity": "waste_disposal"
  }
},
{
  "type": "node",
  "id": 7045894483,
  "lat": 54.0906445,
  "lon": 12.1037386,
  "tags": {
    "amenity": "waste_disposal"
  }
},
{
  "type": "node",
  "id": 7045904958,
  "lat": 54.0903379,
  "lon": 12.1060066,
  "tags": {
    "amenity": "waste_disposal"
  }
},
{
  "type": "node",
  "id": 7143692857,
  "lat": 54.2752254,
  "lon": 12.8062433,
  "tags": {
    "amenity": "waste_disposal",
    "waste": "glass"
  }
},
{
  "type": "node",
  "id": 7187098524,
  "lat": 53.9683216,
  "lon": 14.0605568,
  "tags": {
    "amenity": "waste_disposal"
  }
},
{
  "type": "node",
  "id": 7387498207,
  "lat": 54.1135954,
  "lon": 12.1509647,
  "tags": {
    "access": "private",
    "amenity": "waste_disposal",
    "waste": "trash"
  }
},
{
  "type": "node",
  "id": 7591741578,
  "lat": 54.1394899,
  "lon": 12.0320990,
  "tags": {
    "access": "private",
    "amenity": "waste_disposal",
    "waste": "trash"
  }
},
{
  "type": "node",
  "id": 7677805118,
  "lat": 53.5648809,
  "lon": 11.1954908,
  "tags": {
    "amenity": "waste_disposal",
    "waste": "trash"
  }
},
{
  "type": "node",
  "id": 7677805119,
  "lat": 53.5648845,
  "lon": 11.1954432,
  "tags": {
    "amenity": "waste_disposal",
    "waste": "trash"
  }
},
{
  "type": "node",
  "id": 7677805120,
  "lat": 53.5648857,
  "lon": 11.1954117,
  "tags": {
    "amenity": "waste_disposal",
    "waste": "trash"
  }
},
{
  "type": "node",
  "id": 7679750304,
  "lat": 53.5675961,
  "lon": 11.1928421,
  "tags": {
    "amenity": "waste_disposal",
    "waste": "trash"
  }
},
{
  "type": "node",
  "id": 7679750305,
  "lat": 53.5675754,
  "lon": 11.1928381,
  "tags": {
    "amenity": "waste_disposal",
    "waste": "trash"
  }
},
{
  "type": "node",
  "id": 7756097258,
  "lat": 54.0429400,
  "lon": 12.1126469,
  "tags": {
    "access": "private",
    "amenity": "waste_disposal"
  }
},
{
  "type": "node",
  "id": 7880532485,
  "lat": 54.3109759,
  "lon": 13.6811608,
  "tags": {
    "amenity": "waste_disposal"
  }
},
{
  "type": "node",
  "id": 7881950886,
  "lat": 53.9942423,
  "lon": 11.3792351,
  "tags": {
    "access": "customers",
    "amenity": "waste_disposal"
  }
},
{
  "type": "node",
  "id": 7925624633,
  "lat": 54.2525779,
  "lon": 12.2314246,
  "tags": {
    "amenity": "waste_disposal",
    "waste": "glass"
  }
},
{
  "type": "node",
  "id": 7925624634,
  "lat": 54.2514271,
  "lon": 12.2332249,
  "tags": {
    "amenity": "waste_disposal",
    "waste": "glass"
  }
},
{
  "type": "node",
  "id": 8018722830,
  "lat": 54.1440396,
  "lon": 12.1018379,
  "tags": {
    "amenity": "waste_disposal"
  }
},
{
  "type": "node",
  "id": 8097729675,
  "lat": 54.1112712,
  "lon": 12.1560234,
  "tags": {
    "access": "private",
    "amenity": "waste_disposal",
    "waste": "trash"
  }
},
{
  "type": "node",
  "id": 8169098050,
  "lat": 53.3074587,
  "lon": 12.7354733,
  "tags": {
    "access": "private",
    "amenity": "waste_disposal"
  }
},
{
  "type": "node",
  "id": 8169098051,
  "lat": 53.3074936,
  "lon": 12.7354867,
  "tags": {
    "access": "private",
    "amenity": "waste_disposal"
  }
},
{
  "type": "node",
  "id": 8376985814,
  "lat": 53.3094247,
  "lon": 12.7411769,
  "tags": {
    "access": "private",
    "amenity": "waste_disposal"
  }
},
{
  "type": "node",
  "id": 8376985815,
  "lat": 53.3093702,
  "lon": 12.7412332,
  "tags": {
    "access": "private",
    "amenity": "waste_disposal"
  }
},
{
  "type": "node",
  "id": 8918447618,
  "lat": 53.6223308,
  "lon": 11.4015973,
  "tags": {
    "amenity": "waste_disposal",
    "recycling:PET": "yes",
    "recycling:cans": "yes",
    "recycling:cardboard": "yes",
    "recycling:clothes": "yes",
    "recycling:glass_bottles": "yes",
    "recycling:paper": "yes",
    "recycling:plastic_bottles": "yes",
    "recycling:plastic_packaging": "yes",
    "recycling:shoes": "yes",
    "recycling:small_appliances": "yes"
  }
},
{
  "type": "node",
  "id": 8972681592,
  "lat": 53.7988867,
  "lon": 12.8767820,
  "tags": {
    "amenity": "waste_disposal"
  }
},
{
  "type": "node",
  "id": 9023820492,
  "lat": 53.7509622,
  "lon": 11.4975062,
  "tags": {
    "amenity": "waste_disposal"
  }
},
{
  "type": "node",
  "id": 9025576539,
  "lat": 54.4216798,
  "lon": 13.5877776,
  "tags": {
    "access": "customers",
    "amenity": "waste_disposal"
  }
},
{
  "type": "node",
  "id": 9092415730,
  "lat": 54.3508688,
  "lon": 13.0710416,
  "tags": {
    "amenity": "waste_disposal"
  }
},
{
  "type": "node",
  "id": 9141607626,
  "lat": 53.6140234,
  "lon": 11.4003007,
  "tags": {
    "amenity": "waste_disposal"
  }
},
{
  "type": "node",
  "id": 9141607627,
  "lat": 53.6146809,
  "lon": 11.3991245,
  "tags": {
    "amenity": "waste_disposal"
  }
},
{
  "type": "node",
  "id": 9199198619,
  "lat": 54.5143321,
  "lon": 13.6448195,
  "tags": {
    "access": "private",
    "amenity": "waste_disposal"
  }
},
{
  "type": "node",
  "id": 9379076577,
  "lat": 54.0155521,
  "lon": 12.5984085,
  "tags": {
    "amenity": "waste_disposal"
  }
},
{
  "type": "node",
  "id": 9507401179,
  "lat": 54.1920252,
  "lon": 12.1443371,
  "tags": {
    "access": "permit",
    "amenity": "waste_disposal"
  }
},
{
  "type": "node",
  "id": 9507401180,
  "lat": 54.1925729,
  "lon": 12.1442064,
  "tags": {
    "access": "permit",
    "amenity": "waste_disposal"
  }
},
{
  "type": "node",
  "id": 9507401181,
  "lat": 54.1922239,
  "lon": 12.1474609,
  "tags": {
    "access": "permit",
    "amenity": "waste_disposal"
  }
},
{
  "type": "node",
  "id": 9560892146,
  "lat": 54.0912034,
  "lon": 12.1441260,
  "tags": {
    "access": "private",
    "amenity": "waste_disposal"
  }
},
{
  "type": "node",
  "id": 9702962677,
  "lat": 54.0839649,
  "lon": 12.1463914,
  "tags": {
    "amenity": "waste_disposal"
  }
},
{
  "type": "node",
  "id": 9723037618,
  "lat": 53.8497588,
  "lon": 11.5249337,
  "tags": {
    "amenity": "waste_disposal",
    "waste": "pap"
  }
},
{
  "type": "node",
  "id": 9911794661,
  "lat": 53.4991420,
  "lon": 12.3541281,
  "tags": {
    "amenity": "waste_disposal"
  }
},
{
  "type": "node",
  "id": 9960301725,
  "lat": 53.3471393,
  "lon": 12.9233149,
  "tags": {
    "amenity": "waste_disposal"
  }
},
{
  "type": "node",
  "id": 10011749708,
  "lat": 53.7465089,
  "lon": 14.0689028,
  "tags": {
    "access": "customers",
    "amenity": "waste_disposal",
    "waste": "trash"
  }
},
{
  "type": "node",
  "id": 10042776698,
  "lat": 54.0873823,
  "lon": 13.4582385,
  "tags": {
    "amenity": "waste_disposal",
    "waste": "trash"
  }
},
{
  "type": "node",
  "id": 10061356601,
  "lat": 54.0929842,
  "lon": 12.1197177,
  "tags": {
    "amenity": "waste_disposal"
  }
},
{
  "type": "node",
  "id": 10079353049,
  "lat": 54.0932160,
  "lon": 12.1446197,
  "tags": {
    "amenity": "waste_disposal"
  }
},
{
  "type": "node",
  "id": 10079353264,
  "lat": 54.0926006,
  "lon": 12.1369286,
  "tags": {
    "amenity": "waste_disposal"
  }
},
{
  "type": "node",
  "id": 10079353379,
  "lat": 54.0923125,
  "lon": 12.1259020,
  "tags": {
    "amenity": "waste_disposal"
  }
},
{
  "type": "node",
  "id": 10094747406,
  "lat": 54.0900187,
  "lon": 12.1417326,
  "tags": {
    "amenity": "waste_disposal",
    "waste": "trash"
  }
},
{
  "type": "node",
  "id": 10143471603,
  "lat": 54.1408031,
  "lon": 12.0702175,
  "tags": {
    "amenity": "waste_disposal",
    "waste": "trash"
  }
},
{
  "type": "node",
  "id": 10231711402,
  "lat": 53.5068344,
  "lon": 12.9607362,
  "tags": {
    "amenity": "waste_disposal",
    "waste": "glass;paper"
  }
},
{
  "type": "node",
  "id": 10238152645,
  "lat": 54.1028484,
  "lon": 12.1765262,
  "tags": {
    "amenity": "waste_disposal",
    "waste": "trash"
  }
},
{
  "type": "node",
  "id": 10238152646,
  "lat": 54.1028233,
  "lon": 12.1766683,
  "tags": {
    "amenity": "waste_disposal",
    "waste": "trash"
  }
},
{
  "type": "node",
  "id": 10300989001,
  "lat": 53.5806785,
  "lon": 11.6394095,
  "tags": {
    "amenity": "waste_disposal"
  }
},
{
  "type": "node",
  "id": 10590364568,
  "lat": 53.6216239,
  "lon": 12.3647651,
  "tags": {
    "amenity": "waste_disposal"
  }
},
{
  "type": "node",
  "id": 10590364570,
  "lat": 53.6193860,
  "lon": 12.3658365,
  "tags": {
    "amenity": "waste_disposal"
  }
},
{
  "type": "node",
  "id": 10591340731,
  "lat": 54.1103996,
  "lon": 12.0779895,
  "tags": {
    "amenity": "waste_disposal"
  }
},
{
  "type": "node",
  "id": 10602141686,
  "lat": 54.0906421,
  "lon": 12.1335138,
  "tags": {
    "amenity": "waste_disposal",
    "waste": "trash"
  }
},
{
  "type": "node",
  "id": 10602141757,
  "lat": 54.0907199,
  "lon": 12.1349213,
  "tags": {
    "amenity": "waste_disposal",
    "waste": "trash"
  }
},
{
  "type": "node",
  "id": 10602141813,
  "lat": 54.0904282,
  "lon": 12.1385192,
  "tags": {
    "amenity": "waste_disposal",
    "waste": "trash"
  }
},
{
  "type": "node",
  "id": 10602141875,
  "lat": 54.0905297,
  "lon": 12.1408711,
  "tags": {
    "amenity": "waste_disposal"
  }
},
{
  "type": "node",
  "id": 10602141908,
  "lat": 54.0911626,
  "lon": 12.1424173,
  "tags": {
    "amenity": "waste_disposal"
  }
},
{
  "type": "node",
  "id": 10604538445,
  "lat": 54.0908279,
  "lon": 12.1312407,
  "tags": {
    "amenity": "waste_disposal"
  }
},
{
  "type": "node",
  "id": 10604538446,
  "lat": 54.0913077,
  "lon": 12.1311092,
  "tags": {
    "amenity": "waste_disposal"
  }
},
{
  "type": "node",
  "id": 10604538447,
  "lat": 54.0913491,
  "lon": 12.1334354,
  "tags": {
    "amenity": "waste_disposal"
  }
},
{
  "type": "node",
  "id": 10604538448,
  "lat": 54.0912968,
  "lon": 12.1346924,
  "tags": {
    "amenity": "waste_disposal"
  }
},
{
  "type": "node",
  "id": 10604538569,
  "lat": 54.0911278,
  "lon": 12.1359963,
  "tags": {
    "amenity": "waste_disposal"
  }
},
{
  "type": "node",
  "id": 10604538570,
  "lat": 54.0919426,
  "lon": 12.1358419,
  "tags": {
    "amenity": "waste_disposal"
  }
},
{
  "type": "node",
  "id": 10604538585,
  "lat": 54.0922844,
  "lon": 12.1370710,
  "tags": {
    "amenity": "waste_disposal"
  }
},
{
  "type": "node",
  "id": 10607760965,
  "lat": 54.0918062,
  "lon": 12.1375167,
  "tags": {
    "amenity": "waste_disposal"
  }
},
{
  "type": "node",
  "id": 10684161876,
  "lat": 54.0936952,
  "lon": 12.1503106,
  "tags": {
    "amenity": "waste_disposal"
  }
},
{
  "type": "node",
  "id": 10684161877,
  "lat": 54.0936861,
  "lon": 12.1502376,
  "tags": {
    "amenity": "waste_disposal"
  }
},
{
  "type": "node",
  "id": 10684173105,
  "lat": 54.0927309,
  "lon": 12.1520660,
  "tags": {
    "amenity": "waste_disposal"
  }
},
{
  "type": "node",
  "id": 10684173117,
  "lat": 54.0928344,
  "lon": 12.1515676,
  "tags": {
    "amenity": "waste_disposal"
  }
},
{
  "type": "node",
  "id": 10684173146,
  "lat": 54.0934664,
  "lon": 12.1503160,
  "tags": {
    "amenity": "waste_disposal"
  }
},
{
  "type": "node",
  "id": 10684173148,
  "lat": 54.0933822,
  "lon": 12.1506133,
  "tags": {
    "amenity": "waste_disposal"
  }
},
{
  "type": "node",
  "id": 10684173151,
  "lat": 54.0937878,
  "lon": 12.1504972,
  "tags": {
    "amenity": "waste_disposal"
  }
},
{
  "type": "node",
  "id": 10684173248,
  "lat": 54.0923151,
  "lon": 12.1508975,
  "tags": {
    "amenity": "waste_disposal"
  }
},
{
  "type": "node",
  "id": 10700304396,
  "lat": 54.0851363,
  "lon": 12.1502940,
  "tags": {
    "amenity": "waste_disposal"
  }
},
{
  "type": "node",
  "id": 10709724352,
  "lat": 53.5686490,
  "lon": 13.2571420,
  "tags": {
    "amenity": "waste_disposal",
    "waste": "mixed"
  }
},
{
  "type": "node",
  "id": 10709836789,
  "lat": 53.5714055,
  "lon": 13.2581515,
  "tags": {
    "amenity": "waste_disposal",
    "waste": "mixed"
  }
},
{
  "type": "node",
  "id": 10709836790,
  "lat": 53.5685943,
  "lon": 13.2567406,
  "tags": {
    "amenity": "waste_disposal",
    "waste": "mixed"
  }
},
{
  "type": "node",
  "id": 10709836791,
  "lat": 53.5692845,
  "lon": 13.2558940,
  "tags": {
    "amenity": "waste_disposal",
    "waste": "mixed"
  }
},
{
  "type": "node",
  "id": 10709836792,
  "lat": 53.5699948,
  "lon": 13.2584466,
  "tags": {
    "amenity": "waste_disposal",
    "waste": "mixed"
  }
},
{
  "type": "node",
  "id": 10709836793,
  "lat": 53.5686883,
  "lon": 13.2584856,
  "tags": {
    "amenity": "waste_disposal",
    "waste": "mixed"
  }
},
{
  "type": "node",
  "id": 10709836794,
  "lat": 53.5712658,
  "lon": 13.2588389,
  "tags": {
    "amenity": "waste_disposal",
    "waste": "mixed"
  }
},
{
  "type": "node",
  "id": 10709836795,
  "lat": 53.5714767,
  "lon": 13.2564665,
  "tags": {
    "amenity": "waste_disposal",
    "waste": "mixed"
  }
},
{
  "type": "node",
  "id": 10709836796,
  "lat": 53.5700186,
  "lon": 13.2568205,
  "tags": {
    "amenity": "waste_disposal",
    "waste": "mixed"
  }
},
{
  "type": "node",
  "id": 10709836797,
  "lat": 53.5705255,
  "lon": 13.2583183,
  "tags": {
    "amenity": "waste_disposal",
    "waste": "mixed"
  }
},
{
  "type": "node",
  "id": 10709836798,
  "lat": 53.5713634,
  "lon": 13.2592327,
  "tags": {
    "amenity": "waste_disposal",
    "waste": "mixed"
  }
},
{
  "type": "node",
  "id": 10709836799,
  "lat": 53.5714408,
  "lon": 13.2573751,
  "tags": {
    "amenity": "waste_disposal",
    "waste": "mixed"
  }
},
{
  "type": "node",
  "id": 10709836800,
  "lat": 53.5713153,
  "lon": 13.2568193,
  "tags": {
    "amenity": "waste_disposal",
    "waste": "mixed"
  }
},
{
  "type": "node",
  "id": 10709836802,
  "lat": 53.5697083,
  "lon": 13.2588061,
  "tags": {
    "amenity": "waste_disposal",
    "waste": "mixed"
  }
},
{
  "type": "node",
  "id": 10709836803,
  "lat": 53.5697857,
  "lon": 13.2569869,
  "tags": {
    "amenity": "waste_disposal",
    "waste": "mixed"
  }
},
{
  "type": "node",
  "id": 10709836804,
  "lat": 53.5698570,
  "lon": 13.2551293,
  "tags": {
    "amenity": "waste_disposal",
    "waste": "mixed"
  }
},
{
  "type": "node",
  "id": 10709852106,
  "lat": 53.5705527,
  "lon": 13.2577278,
  "tags": {
    "amenity": "waste_disposal",
    "waste": "mixed"
  }
},
{
  "type": "node",
  "id": 10709852108,
  "lat": 53.5708143,
  "lon": 13.2605859,
  "tags": {
    "amenity": "waste_disposal",
    "waste": "mixed"
  }
},
{
  "type": "node",
  "id": 10709852110,
  "lat": 53.5712309,
  "lon": 13.2573391,
  "tags": {
    "amenity": "waste_disposal",
    "waste": "mixed"
  }
},
{
  "type": "node",
  "id": 10709852111,
  "lat": 53.5713489,
  "lon": 13.2597016,
  "tags": {
    "amenity": "waste_disposal",
    "waste": "mixed"
  }
},
{
  "type": "node",
  "id": 10709852112,
  "lat": 53.5712748,
  "lon": 13.2581377,
  "tags": {
    "amenity": "waste_disposal",
    "waste": "mixed"
  }
},
{
  "type": "node",
  "id": 10709852113,
  "lat": 53.5713596,
  "lon": 13.2556697,
  "tags": {
    "amenity": "waste_disposal",
    "waste": "mixed"
  }
},
{
  "type": "node",
  "id": 10709852114,
  "lat": 53.5712308,
  "lon": 13.2600580,
  "tags": {
    "amenity": "waste_disposal",
    "waste": "mixed"
  }
},
{
  "type": "node",
  "id": 10709852116,
  "lat": 53.5698558,
  "lon": 13.2602617,
  "tags": {
    "amenity": "waste_disposal",
    "waste": "mixed"
  }
},
{
  "type": "node",
  "id": 10722017286,
  "lat": 53.5689364,
  "lon": 13.2560006,
  "tags": {
    "amenity": "waste_disposal",
    "waste": "mixed"
  }
},
{
  "type": "node",
  "id": 10726617617,
  "lat": 53.5699026,
  "lon": 13.2588999,
  "tags": {
    "amenity": "waste_disposal",
    "waste": "mixed"
  }
},
{
  "type": "node",
  "id": 10726766257,
  "lat": 53.5710052,
  "lon": 13.2561870,
  "tags": {
    "amenity": "waste_disposal",
    "waste": "mixed"
  }
},
{
  "type": "node",
  "id": 10735502582,
  "lat": 54.0878772,
  "lon": 12.1462440,
  "tags": {
    "amenity": "waste_disposal"
  }
},
{
  "type": "node",
  "id": 10735502615,
  "lat": 54.0870748,
  "lon": 12.1450809,
  "tags": {
    "amenity": "waste_disposal"
  }
},
{
  "type": "node",
  "id": 10743348430,
  "lat": 53.5706609,
  "lon": 13.2547643,
  "tags": {
    "amenity": "waste_disposal",
    "waste": "mixed"
  }
},
{
  "type": "node",
  "id": 10760180232,
  "lat": 53.5660080,
  "lon": 13.2035522,
  "tags": {
    "amenity": "waste_disposal",
    "waste": "organic"
  }
},
{
  "type": "node",
  "id": 10760180252,
  "lat": 53.5669504,
  "lon": 13.1991513,
  "tags": {
    "amenity": "waste_disposal"
  }
},
{
  "type": "node",
  "id": 10763417235,
  "lat": 53.9435837,
  "lon": 14.1883566,
  "tags": {
    "amenity": "waste_disposal"
  }
},
{
  "type": "node",
  "id": 10764669478,
  "lat": 53.5807907,
  "lon": 13.2830516,
  "tags": {
    "amenity": "waste_disposal",
    "waste": "trash"
  }
},
{
  "type": "node",
  "id": 10764669479,
  "lat": 53.5801866,
  "lon": 13.2830216,
  "tags": {
    "amenity": "waste_disposal",
    "waste": "trash"
  }
},
{
  "type": "node",
  "id": 10764669489,
  "lat": 53.5798112,
  "lon": 13.2831460,
  "tags": {
    "amenity": "waste_disposal",
    "waste": "trash"
  }
},
{
  "type": "node",
  "id": 10764868362,
  "lat": 53.5252823,
  "lon": 13.2839838,
  "tags": {
    "access": "private",
    "amenity": "waste_disposal",
    "waste": "trash"
  }
},
{
  "type": "node",
  "id": 10772429230,
  "lat": 53.5704398,
  "lon": 13.2606341,
  "tags": {
    "amenity": "waste_disposal",
    "waste": "mixed"
  }
},
{
  "type": "node",
  "id": 10978259461,
  "lat": 53.4677742,
  "lon": 12.3505094,
  "tags": {
    "amenity": "waste_disposal"
  }
},
{
  "type": "node",
  "id": 11014370194,
  "lat": 54.1466229,
  "lon": 12.0492687,
  "tags": {
    "amenity": "waste_disposal"
  }
},
{
  "type": "node",
  "id": 11014370207,
  "lat": 54.1456159,
  "lon": 12.0492014,
  "tags": {
    "amenity": "waste_disposal"
  }
},
{
  "type": "node",
  "id": 11014370208,
  "lat": 54.1457044,
  "lon": 12.0493017,
  "tags": {
    "amenity": "waste_disposal"
  }
},
{
  "type": "node",
  "id": 11014370496,
  "lat": 54.1521492,
  "lon": 12.0580988,
  "tags": {
    "amenity": "waste_disposal"
  }
},
{
  "type": "node",
  "id": 11014370549,
  "lat": 54.1547392,
  "lon": 12.0611375,
  "tags": {
    "amenity": "waste_disposal"
  }
},
{
  "type": "node",
  "id": 11023524293,
  "lat": 54.1046692,
  "lon": 12.1606017,
  "tags": {
    "amenity": "waste_disposal"
  }
},
{
  "type": "node",
  "id": 11023527007,
  "lat": 54.1029577,
  "lon": 12.1667156,
  "tags": {
    "amenity": "waste_disposal"
  }
},
{
  "type": "node",
  "id": 11025799498,
  "lat": 54.0735326,
  "lon": 12.1126501,
  "tags": {
    "amenity": "waste_disposal"
  }
},
{
  "type": "node",
  "id": 11025807998,
  "lat": 54.0745043,
  "lon": 12.1030944,
  "tags": {
    "amenity": "waste_disposal"
  }
},
{
  "type": "node",
  "id": 11025808035,
  "lat": 54.0738285,
  "lon": 12.1049265,
  "tags": {
    "amenity": "waste_disposal"
  }
},
{
  "type": "node",
  "id": 11025808109,
  "lat": 54.0699971,
  "lon": 12.1151122,
  "tags": {
    "amenity": "waste_disposal"
  }
},
{
  "type": "node",
  "id": 11025808110,
  "lat": 54.0702192,
  "lon": 12.1157156,
  "tags": {
    "amenity": "waste_disposal"
  }
},
{
  "type": "node",
  "id": 11025808125,
  "lat": 54.0651315,
  "lon": 12.1153483,
  "tags": {
    "amenity": "waste_disposal"
  }
},
{
  "type": "node",
  "id": 11025808126,
  "lat": 54.0655977,
  "lon": 12.1151685,
  "tags": {
    "amenity": "waste_disposal"
  }
},
{
  "type": "node",
  "id": 11030387374,
  "lat": 54.0931861,
  "lon": 12.0964403,
  "tags": {
    "amenity": "waste_disposal"
  }
},
{
  "type": "node",
  "id": 11037469543,
  "lat": 54.0818983,
  "lon": 12.1379207,
  "tags": {
    "amenity": "waste_disposal"
  }
},
{
  "type": "node",
  "id": 11037486012,
  "lat": 54.0817212,
  "lon": 12.1384165,
  "tags": {
    "amenity": "waste_disposal"
  }
},
{
  "type": "node",
  "id": 11037486013,
  "lat": 54.0816727,
  "lon": 12.1390056,
  "tags": {
    "amenity": "waste_disposal"
  }
},
{
  "type": "node",
  "id": 11037486014,
  "lat": 54.0817392,
  "lon": 12.1390145,
  "tags": {
    "amenity": "waste_disposal"
  }
},
{
  "type": "node",
  "id": 11037486568,
  "lat": 54.0796017,
  "lon": 12.1337287,
  "tags": {
    "amenity": "waste_disposal"
  }
},
{
  "type": "node",
  "id": 11037486603,
  "lat": 54.0792379,
  "lon": 12.1333407,
  "tags": {
    "amenity": "waste_disposal"
  }
},
{
  "type": "node",
  "id": 11040102284,
  "lat": 54.0876788,
  "lon": 12.1396745,
  "tags": {
    "amenity": "waste_disposal"
  }
},
{
  "type": "node",
  "id": 11132221861,
  "lat": 54.4601746,
  "lon": 12.5365973,
  "tags": {
    "amenity": "waste_disposal",
    "name": "Müllplatz"
  }
},
{
  "type": "node",
  "id": 11132222860,
  "lat": 54.4620148,
  "lon": 12.5336142,
  "tags": {
    "amenity": "waste_disposal",
    "name": "Müllplatz"
  }
},
{
  "type": "node",
  "id": 11132224737,
  "lat": 54.4608291,
  "lon": 12.5355057,
  "tags": {
    "amenity": "waste_disposal",
    "name": "Müllplatz"
  }
},
{
  "type": "node",
  "id": 11132236683,
  "lat": 54.4615366,
  "lon": 12.5341089,
  "tags": {
    "amenity": "waste_disposal",
    "name": "Müllplatz"
  }
},
{
  "type": "node",
  "id": 11132261815,
  "lat": 54.4625505,
  "lon": 12.5326595,
  "tags": {
    "amenity": "waste_disposal",
    "name": "Müllplatz"
  }
},
{
  "type": "node",
  "id": 11155706101,
  "lat": 53.4797557,
  "lon": 12.4284440,
  "tags": {
    "access": "private",
    "amenity": "waste_disposal",
    "waste": "trash"
  }
},
{
  "type": "node",
  "id": 11160398472,
  "lat": 53.7670628,
  "lon": 11.4643991,
  "tags": {
    "amenity": "waste_disposal"
  }
},
{
  "type": "node",
  "id": 11160398511,
  "lat": 53.7689310,
  "lon": 11.4662028,
  "tags": {
    "amenity": "waste_disposal"
  }
},
{
  "type": "way",
  "id": 224861158,
  "nodes": [
    2337108225,
    2337108221,
    2337108223,
    2337108227,
    2337108229,
    2337108225
  ],
  "tags": {
    "addr:housenumber": "12",
    "addr:street": "Sassnitzer Straße",
    "amenity": "waste_disposal",
    "contact:website": "https://www.lk-vr.de/Kreisverwaltung/Abfallwirtschaft/",
    "landuse": "industrial",
    "name": "Wertstoffhof Sagard"
  }
},
{
  "type": "way",
  "id": 234831711,
  "nodes": [
    2429609500,
    2429609501,
    2429609497,
    2429609495,
    2429609500
  ],
  "tags": {
    "access": "private",
    "addr:city": "Karlshagen",
    "addr:country": "DE",
    "addr:postcode": "17449",
    "addr:street": "An den Rehwiesen",
    "amenity": "waste_disposal"
  }
},
{
  "type": "way",
  "id": 274546846,
  "nodes": [
    2772161562,
    2792495147,
    2792495479,
    2792495289,
    2772161562
  ],
  "tags": {
    "access": "private",
    "amenity": "waste_disposal"
  }
},
{
  "type": "way",
  "id": 274546866,
  "nodes": [
    10247020903,
    10247020904,
    2792495262,
    2792495369,
    10247020903
  ],
  "tags": {
    "access": "private",
    "amenity": "waste_disposal"
  }
},
{
  "type": "way",
  "id": 274546873,
  "nodes": [
    2792495517,
    2792495413,
    2792495470,
    2772161561,
    2706126387,
    2792495517
  ],
  "tags": {
    "access": "private",
    "amenity": "waste_disposal"
  }
},
{
  "type": "way",
  "id": 274701631,
  "nodes": [
    10247020794,
    10247020792,
    2793803392,
    2793803390,
    10247020794
  ],
  "tags": {
    "amenity": "waste_disposal"
  }
},
{
  "type": "way",
  "id": 278246901,
  "nodes": [
    2826490525,
    2826490534,
    2826490537,
    2826490527,
    2826490525
  ],
  "tags": {
    "access": "private",
    "amenity": "waste_disposal"
  }
},
{
  "type": "way",
  "id": 278246902,
  "nodes": [
    10247020894,
    2826505421,
    10247020896,
    10247020895,
    10247020894
  ],
  "tags": {
    "access": "private",
    "amenity": "waste_disposal"
  }
},
{
  "type": "way",
  "id": 278246904,
  "nodes": [
    2826490532,
    2826490524,
    2826490522,
    2826490529,
    2826490532
  ],
  "tags": {
    "access": "private",
    "amenity": "waste_disposal"
  }
},
{
  "type": "way",
  "id": 279779059,
  "nodes": [
    2839703500,
    2478828037,
    2839703486,
    2839703488,
    2839703500
  ],
  "tags": {
    "access": "private",
    "amenity": "waste_disposal"
  }
},
{
  "type": "way",
  "id": 279779062,
  "nodes": [
    2839705348,
    279078715,
    2839705350,
    2839705347,
    2839705348
  ],
  "tags": {
    "access": "private",
    "amenity": "waste_disposal"
  }
},
{
  "type": "way",
  "id": 279779063,
  "nodes": [
    2839703416,
    2839703411,
    2473435381,
    2473435383,
    2839703416
  ],
  "tags": {
    "access": "private",
    "amenity": "waste_disposal"
  }
},
{
  "type": "way",
  "id": 279779065,
  "nodes": [
    2839703408,
    2839703406,
    2349121956,
    2349121958,
    2839703408
  ],
  "tags": {
    "access": "private",
    "amenity": "waste_disposal"
  }
},
{
  "type": "way",
  "id": 279780611,
  "nodes": [
    2839735943,
    2839735941,
    2839735934,
    2839735935,
    2839735943
  ],
  "tags": {
    "access": "private",
    "amenity": "waste_disposal"
  }
},
{
  "type": "way",
  "id": 279790445,
  "nodes": [
    2839804196,
    2475897811,
    2839804195,
    2839804197,
    2839804196
  ],
  "tags": {
    "access": "private",
    "amenity": "waste_disposal"
  }
},
{
  "type": "way",
  "id": 279790446,
  "nodes": [
    2839804022,
    2839804019,
    2839804024,
    2839804027,
    2839804022
  ],
  "tags": {
    "access": "private",
    "amenity": "waste_disposal"
  }
},
{
  "type": "way",
  "id": 279972465,
  "nodes": [
    2841521551,
    2841521561,
    2841521581,
    2841521576,
    2841521551
  ],
  "tags": {
    "access": "private",
    "amenity": "waste_disposal"
  }
},
{
  "type": "way",
  "id": 279972472,
  "nodes": [
    2478828039,
    2841521844,
    2841521843,
    2764988207,
    2478828039
  ],
  "tags": {
    "access": "private",
    "amenity": "waste_disposal"
  }
},
{
  "type": "way",
  "id": 279972473,
  "nodes": [
    2841521558,
    2711053408,
    2841521549,
    2841521545,
    2841521552,
    2841521553,
    2841521558
  ],
  "tags": {
    "access": "private",
    "amenity": "waste_disposal"
  }
},
{
  "type": "way",
  "id": 279972474,
  "nodes": [
    2841521824,
    2841521816,
    2841521814,
    2841521822,
    2841521824
  ],
  "tags": {
    "access": "private",
    "amenity": "waste_disposal"
  }
},
{
  "type": "way",
  "id": 286158786,
  "nodes": [
    2898044851,
    2898044846,
    2898044848,
    2897467617,
    2898044851
  ],
  "tags": {
    "access": "private",
    "amenity": "waste_disposal"
  }
},
{
  "type": "way",
  "id": 302344252,
  "nodes": [
    3066012297,
    3066012282,
    3066012280,
    3066012293,
    3066012297
  ],
  "tags": {
    "access": "private",
    "amenity": "waste_disposal"
  }
},
{
  "type": "way",
  "id": 302344259,
  "nodes": [
    3066014056,
    3066014054,
    3066014060,
    3066014062,
    3066014056
  ],
  "tags": {
    "access": "private",
    "amenity": "waste_disposal"
  }
},
{
  "type": "way",
  "id": 326519712,
  "nodes": [
    3331697210,
    3331697200,
    3331696490,
    3331697199,
    3331697210
  ],
  "tags": {
    "access": "private",
    "amenity": "waste_disposal"
  }
},
{
  "type": "way",
  "id": 339706410,
  "nodes": [
    3469117010,
    3469117011,
    3469117009,
    3469117008,
    3469117010
  ],
  "tags": {
    "amenity": "waste_disposal"
  }
},
{
  "type": "way",
  "id": 477004178,
  "nodes": [
    4704196543,
    4704196544,
    4704196545,
    4704196546,
    4704196543
  ],
  "tags": {
    "amenity": "waste_disposal"
  }
},
{
  "type": "way",
  "id": 571396543,
  "nodes": [
    5493352416,
    5491606229,
    5491606230,
    5493352415,
    5493352416
  ],
  "tags": {
    "amenity": "waste_disposal"
  }
},
{
  "type": "way",
  "id": 574084796,
  "nodes": [
    5511554990,
    5511554991,
    5511554992,
    5511554993,
    5511554990
  ],
  "tags": {
    "amenity": "waste_disposal"
  }
},
{
  "type": "way",
  "id": 574084798,
  "nodes": [
    5511554994,
    5511554995,
    5511554996,
    5511554997,
    5511554994
  ],
  "tags": {
    "amenity": "waste_disposal"
  }
},
{
  "type": "way",
  "id": 586905043,
  "nodes": [
    5606942603,
    5606942604,
    5606942605,
    5606942606,
    5606942603
  ],
  "tags": {
    "amenity": "waste_disposal"
  }
},
{
  "type": "way",
  "id": 586905058,
  "nodes": [
    5606942744,
    5606942745,
    5606942746,
    5606942747,
    5606942744
  ],
  "tags": {
    "amenity": "waste_disposal"
  }
},
{
  "type": "way",
  "id": 588278741,
  "nodes": [
    5618907469,
    5618907470,
    5618907471,
    5618907472,
    5618907469
  ],
  "tags": {
    "amenity": "waste_disposal"
  }
},
{
  "type": "way",
  "id": 588278743,
  "nodes": [
    5618907473,
    5618907474,
    5618907475,
    5618907476,
    5618907473
  ],
  "tags": {
    "amenity": "waste_disposal"
  }
},
{
  "type": "way",
  "id": 614518608,
  "nodes": [
    5812791166,
    5812791167,
    5812791168,
    5812791169,
    5812791166
  ],
  "tags": {
    "amenity": "waste_disposal"
  }
},
{
  "type": "way",
  "id": 677250139,
  "nodes": [
    6341449019,
    6341449020,
    6341449021,
    6341449022,
    6341449019
  ],
  "tags": {
    "amenity": "waste_disposal"
  }
},
{
  "type": "way",
  "id": 685713155,
  "nodes": [
    6426506642,
    6426512918,
    6426512923,
    6426512941,
    6426506642
  ],
  "tags": {
    "amenity": "waste_disposal",
    "waste": "glass;paper;trash"
  }
},
{
  "type": "way",
  "id": 728076426,
  "nodes": [
    6822747746,
    6822747747,
    6822747748,
    6822747749,
    6822747746
  ],
  "tags": {
    "amenity": "waste_disposal"
  }
},
{
  "type": "way",
  "id": 728076428,
  "nodes": [
    6822747757,
    6822747758,
    6822747759,
    6822747760,
    6822747757
  ],
  "tags": {
    "amenity": "waste_disposal"
  }
},
{
  "type": "way",
  "id": 732852886,
  "nodes": [
    6862465332,
    6862465333,
    6862465334,
    6862465335,
    6862465336,
    6862465337,
    6862465332
  ],
  "tags": {
    "amenity": "waste_disposal"
  }
},
{
  "type": "way",
  "id": 737016093,
  "nodes": [
    6900151658,
    6900151659,
    6900151660,
    6900151661,
    6900151658
  ],
  "tags": {
    "access": "private",
    "amenity": "waste_disposal"
  }
},
{
  "type": "way",
  "id": 753314621,
  "nodes": [
    7038610770,
    7038610771,
    7038610772,
    7038610773,
    7038610770
  ],
  "tags": {
    "amenity": "waste_disposal"
  }
},
{
  "type": "way",
  "id": 753314622,
  "nodes": [
    7038610764,
    7038610765,
    7038610766,
    7038610775,
    7038610764
  ],
  "tags": {
    "amenity": "waste_disposal"
  }
},
{
  "type": "way",
  "id": 759674710,
  "nodes": [
    7096463623,
    7096463624,
    7096463625,
    7096463626,
    7096463627,
    7096463623
  ],
  "tags": {
    "access": "customers",
    "amenity": "waste_disposal",
    "waste": "plastic;paper;household"
  }
},
{
  "type": "way",
  "id": 779707821,
  "nodes": [
    7281018657,
    7281018661,
    7281018659,
    7281018658,
    7281018660,
    7281018657
  ],
  "tags": {
    "access": "private",
    "amenity": "waste_disposal"
  }
},
{
  "type": "way",
  "id": 788272227,
  "nodes": [
    7369878455,
    7369878456,
    7369878457,
    7369878458,
    7369878455
  ],
  "tags": {
    "amenity": "waste_disposal"
  }
},
{
  "type": "way",
  "id": 788272228,
  "nodes": [
    7369878459,
    7369878460,
    7369878461,
    7369878462,
    7369878459
  ],
  "tags": {
    "amenity": "waste_disposal"
  }
},
{
  "type": "way",
  "id": 788272229,
  "nodes": [
    7369878463,
    7369878464,
    7369878465,
    7369878466,
    7369878463
  ],
  "tags": {
    "amenity": "waste_disposal"
  }
},
{
  "type": "way",
  "id": 788272230,
  "nodes": [
    7369878467,
    7369878468,
    7369878469,
    7369878470,
    7369878467
  ],
  "tags": {
    "amenity": "waste_disposal"
  }
},
{
  "type": "way",
  "id": 788272231,
  "nodes": [
    7369878471,
    7369878472,
    7369878473,
    7369878474,
    7369878471
  ],
  "tags": {
    "amenity": "waste_disposal"
  }
},
{
  "type": "way",
  "id": 970152434,
  "nodes": [
    8977721850,
    8977721849,
    8977721981,
    8977721854,
    8977721853,
    8977721852,
    8977721851,
    8977721850
  ],
  "tags": {
    "access": "private",
    "amenity": "waste_disposal",
    "operator": "Leea"
  }
},
{
  "type": "way",
  "id": 978005969,
  "nodes": [
    9049508453,
    9049508454,
    9049508455,
    9049508456,
    9049508453
  ],
  "tags": {
    "amenity": "waste_disposal"
  }
},
{
  "type": "way",
  "id": 978005970,
  "nodes": [
    9049508457,
    9049508458,
    9049508459,
    9049508460,
    9049508457
  ],
  "tags": {
    "amenity": "waste_disposal"
  }
},
{
  "type": "way",
  "id": 993436688,
  "nodes": [
    9178053417,
    9178053420,
    9178053419,
    9178053422,
    9178053421,
    9178053418,
    9178053417
  ],
  "tags": {
    "access": "private",
    "amenity": "waste_disposal",
    "operator": "Diakonie"
  }
},
{
  "type": "way",
  "id": 997123023,
  "nodes": [
    9207321724,
    9207321725,
    9207321726,
    9207321727,
    9207321724
  ],
  "tags": {
    "amenity": "waste_disposal"
  }
},
{
  "type": "way",
  "id": 997123024,
  "nodes": [
    9207321728,
    9207321729,
    9207321730,
    9207321731,
    9207321728
  ],
  "tags": {
    "amenity": "waste_disposal"
  }
},
{
  "type": "way",
  "id": 997123025,
  "nodes": [
    9207321732,
    9207321733,
    9207321734,
    9207321735,
    9207321732
  ],
  "tags": {
    "amenity": "waste_disposal"
  }
},
{
  "type": "way",
  "id": 997123026,
  "nodes": [
    9207321736,
    9207321737,
    9207321738,
    9207321739,
    9207321736
  ],
  "tags": {
    "amenity": "waste_disposal"
  }
},
{
  "type": "way",
  "id": 997166358,
  "nodes": [
    9207682006,
    9207682007,
    9207682008,
    9207682009,
    9207682006
  ],
  "tags": {
    "amenity": "waste_disposal"
  }
},
{
  "type": "way",
  "id": 997470855,
  "nodes": [
    9210234964,
    9210234965,
    9210234966,
    9210234967,
    9210234964
  ],
  "tags": {
    "amenity": "waste_disposal"
  }
},
{
  "type": "way",
  "id": 998446660,
  "nodes": [
    9218920160,
    9218920161,
    9218920162,
    9218920163,
    9218920160
  ],
  "tags": {
    "access": "private",
    "amenity": "waste_disposal",
    "waste": "household"
  }
},
{
  "type": "way",
  "id": 1000255685,
  "nodes": [
    9232895962,
    9232895963,
    9232895964,
    9232895965,
    9232895962
  ],
  "tags": {
    "access": "private",
    "amenity": "waste_disposal",
    "waste": "trash;household;mixed;organic"
  }
},
{
  "type": "way",
  "id": 1000255686,
  "nodes": [
    9232895966,
    9232895967,
    9232895968,
    9232895969,
    9232895966
  ],
  "tags": {
    "access": "private",
    "amenity": "waste_disposal",
    "waste": "trash;household;mixed;organic"
  }
},
{
  "type": "way",
  "id": 1003479037,
  "nodes": [
    9260006625,
    9260006626,
    9260006627,
    9260006628,
    9260006625
  ],
  "tags": {
    "amenity": "waste_disposal"
  }
},
{
  "type": "way",
  "id": 1004383411,
  "nodes": [
    9267149760,
    9267149761,
    9267149762,
    9267149763,
    9267149760
  ],
  "tags": {
    "access": "private",
    "amenity": "waste_disposal",
    "waste": "household"
  }
},
{
  "type": "way",
  "id": 1004383412,
  "nodes": [
    9267149764,
    9267149765,
    9267149766,
    9267149767,
    9267149764
  ],
  "tags": {
    "access": "private",
    "amenity": "waste_disposal",
    "waste": "household"
  }
},
{
  "type": "way",
  "id": 1004383413,
  "nodes": [
    9267149768,
    9267149769,
    9267149770,
    9267149771,
    9267149768
  ],
  "tags": {
    "access": "private",
    "amenity": "waste_disposal",
    "waste": "household"
  }
},
{
  "type": "way",
  "id": 1004383414,
  "nodes": [
    9267149772,
    9267149773,
    9267149774,
    9267149775,
    9267149772
  ],
  "tags": {
    "access": "private",
    "amenity": "waste_disposal",
    "waste": "household"
  }
},
{
  "type": "way",
  "id": 1004383415,
  "nodes": [
    9267149778,
    9267149779,
    9267149780,
    9267149781,
    9267149778
  ],
  "tags": {
    "access": "private",
    "amenity": "waste_disposal",
    "waste": "household"
  }
},
{
  "type": "way",
  "id": 1004383416,
  "nodes": [
    9267149784,
    9267149785,
    9267149786,
    9267149787,
    9267149784
  ],
  "tags": {
    "access": "private",
    "amenity": "waste_disposal",
    "waste": "household"
  }
},
{
  "type": "way",
  "id": 1004413446,
  "nodes": [
    9267371845,
    9267371846,
    9267371847,
    9267371848,
    9267371845
  ],
  "tags": {
    "access": "private",
    "amenity": "waste_disposal",
    "waste": "household"
  }
},
{
  "type": "way",
  "id": 1006081730,
  "nodes": [
    9282443472,
    9282443473,
    9282443474,
    9282443475,
    9282443472
  ],
  "tags": {
    "access": "private",
    "amenity": "waste_disposal",
    "waste": "trash"
  }
},
{
  "type": "way",
  "id": 1009550482,
  "nodes": [
    9314906956,
    9314906957,
    9314906958,
    9314906959,
    9314906956
  ],
  "tags": {
    "amenity": "waste_disposal"
  }
},
{
  "type": "way",
  "id": 1009550483,
  "nodes": [
    9314906966,
    9314906967,
    9314906968,
    9314906969,
    9314906966
  ],
  "tags": {
    "amenity": "waste_disposal"
  }
},
{
  "type": "way",
  "id": 1016684362,
  "nodes": [
    9377424943,
    9377424944,
    9377424945,
    9377424946,
    9377424943
  ],
  "tags": {
    "amenity": "waste_disposal"
  }
},
{
  "type": "way",
  "id": 1083966729,
  "nodes": [
    9933336568,
    9933336567,
    9933336566,
    9933336565,
    9933336568
  ],
  "tags": {
    "amenity": "waste_disposal"
  }
},
{
  "type": "way",
  "id": 1083966731,
  "nodes": [
    9933336574,
    9933336573,
    9933336572,
    9933336571,
    9933336574
  ],
  "tags": {
    "amenity": "waste_disposal"
  }
},
{
  "type": "way",
  "id": 1083982820,
  "nodes": [
    9933481731,
    9933481730,
    9933481729,
    9933481728,
    9933481731
  ],
  "tags": {
    "amenity": "waste_disposal"
  }
},
{
  "type": "way",
  "id": 1083982821,
  "nodes": [
    9933481734,
    9933481733,
    9933481732,
    3189773802,
    9933481734
  ],
  "tags": {
    "amenity": "waste_disposal"
  }
},
{
  "type": "way",
  "id": 1083982823,
  "nodes": [
    9933481751,
    9933481750,
    9933481749,
    9933481748,
    9933481751
  ],
  "tags": {
    "amenity": "waste_disposal"
  }
},
{
  "type": "way",
  "id": 1083982824,
  "nodes": [
    9933481755,
    9933481754,
    9933481753,
    9933481752,
    9933481755
  ],
  "tags": {
    "amenity": "waste_disposal"
  }
},
{
  "type": "way",
  "id": 1083982825,
  "nodes": [
    9933481761,
    9933481760,
    9933481759,
    9933481758,
    9933481761
  ],
  "tags": {
    "amenity": "waste_disposal"
  }
},
{
  "type": "way",
  "id": 1083982826,
  "nodes": [
    9933481765,
    9933481764,
    9933481763,
    9933481762,
    9933481765
  ],
  "tags": {
    "amenity": "waste_disposal"
  }
},
{
  "type": "way",
  "id": 1083982827,
  "nodes": [
    9933481769,
    9933481768,
    9933481767,
    9933481766,
    9933481769
  ],
  "tags": {
    "amenity": "waste_disposal"
  }
},
{
  "type": "way",
  "id": 1083982828,
  "nodes": [
    9933481773,
    9933481772,
    9933481771,
    9933481770,
    9933481773
  ],
  "tags": {
    "amenity": "waste_disposal"
  }
},
{
  "type": "way",
  "id": 1083982833,
  "nodes": [
    9933481806,
    9933481805,
    9933481804,
    9933481803,
    9933481806
  ],
  "tags": {
    "amenity": "waste_disposal"
  }
},
{
  "type": "way",
  "id": 1083982834,
  "nodes": [
    9933481814,
    9933481813,
    9933481812,
    9933481811,
    9933481814
  ],
  "tags": {
    "amenity": "waste_disposal"
  }
},
{
  "type": "way",
  "id": 1083982835,
  "nodes": [
    9933481819,
    9933481818,
    9933481817,
    9933481816,
    9933481819
  ],
  "tags": {
    "amenity": "waste_disposal"
  }
},
{
  "type": "way",
  "id": 1085308130,
  "nodes": [
    9944686331,
    9944686332,
    9944686333,
    9944686334,
    9944686331
  ],
  "tags": {
    "amenity": "waste_disposal"
  }
},
{
  "type": "way",
  "id": 1104935957,
  "nodes": [
    10111202901,
    10111202904,
    10111202903,
    10111202902,
    10111202901
  ],
  "tags": {
    "amenity": "waste_disposal",
    "barrier": "fence",
    "description": "Müllplatz"
  }
},
{
  "type": "way",
  "id": 1105152705,
  "nodes": [
    10113477454,
    10113477453,
    10113477452,
    3860421457,
    10113477454
  ],
  "tags": {
    "access": "private",
    "amenity": "waste_disposal",
    "barrier": "fence"
  }
},
{
  "type": "way",
  "id": 1153927910,
  "nodes": [
    10731855786,
    10731855780,
    10731855781,
    10731855782,
    10731855793,
    10695890464,
    10731855786
  ],
  "tags": {
    "access": "private",
    "amenity": "waste_disposal",
    "building": "yes",
    "note": "Müllhäuschen"
  }
},
{
  "type": "way",
  "id": 1190537638,
  "nodes": [
    11054326666,
    11054326667,
    11054326668,
    11054326669,
    11054326666
  ],
  "tags": {
    "amenity": "waste_disposal"
  }
},
{
  "type": "way",
  "id": 1202990030,
  "nodes": [
    11151932531,
    11151932532,
    11151932533,
    11151932534,
    11151932531
  ],
  "tags": {
    "access": "customers",
    "amenity": "waste_disposal",
    "operator": "Pension Fischerhaus"
  }
},
{
  "type": "area",
  "id": 3600028322,
  "tags": {
    "ISO3166-2": "DE-MV",
    "TMC:cid_58:tabcd_1:Class": "Area",
    "TMC:cid_58:tabcd_1:LCLversion": "12.0",
    "TMC:cid_58:tabcd_1:LocationCode": "268",
    "admin_level": "4",
    "alt_name:pt": "Meclemburgo-Pomerânia Ocidental",
    "border_type": "state",
    "boundary": "administrative",
    "de:amtlicher_gemeindeschluessel": "13",
    "de:regionalschluessel": "13",
    "name": "Mecklenburg-Vorpommern",
    "name:ar": "مكلنبورغ فوربمرن",
    "name:ca": "Mecklemburg – Pomerània Occidental",
    "name:en": "Mecklenburg-Vorpommern",
    "name:eo": "Meklenburgo-Antaŭpomerio",
    "name:es": "Mecklemburgo-Pomerania Occidental",
    "name:fa": "مکلنبورگ-فورپومرن",
    "name:fi": "Mecklenburg-Etu-Pommeri",
    "name:fr": "Mecklembourg-Poméranie-Occidentale",
    "name:hsb": "Mecklenburgsko-Předpomorska",
    "name:hu": "Mecklenburg–Elő-Pomeránia",
    "name:ia": "Mecklenburg-Vorpommeria",
    "name:io": "Mecklenburg-Westa Pomerania",
    "name:it": "Meclemburgo-Pomerania Anteriore",
    "name:mk": "Мекленбург-Западна Померанија",
    "name:nds": "Mekelnborg-Vörpommern",
    "name:nl": "Mecklenburg-Voor-Pommeren",
    "name:pl": "Meklemburgia-Pomorze Przednie",
    "name:prefix": "Bundesland",
    "name:pt": "Mecklemburgo-Pomerânia Ocidental",
    "name:ru": "Мекленбург-Передняя Померания",
    "name:sk": "Meklenbursko-Predpomoransko",
    "name:sl": "Mecklenburg-Predpomorjanska",
    "name:sr": "Мекленбург-Западна Померанија",
    "name:th": "รัฐ \tเมคเลินบวร์ค-ฟอร์พ็อมเมิร์น",
    "name:uk": "Мекленбург — Передня Померанія",
    "name:ur": "مکلنبرگ-ورپورمرن",
    "name:vo": "Mäklänburgän-Vesudapomerän",
    "name:zh": "梅克伦堡—前波美拉尼亚州",
    "name:zh-Hans": "梅克伦堡—前波美拉尼亚州",
    "name:zh-Hant": "梅克倫堡—西波美拉尼亞州",
    "note": "landmass relation 62774",
    "ref": "MV",
    "ref:nuts:1": "DE8",
    "ref:nuts:2": "DE80",
    "type": "boundary",
    "wikidata": "Q1196",
    "wikipedia": "de:Mecklenburg-Vorpommern"
  }
},
{
  "type": "area",
  "id": 3600062774,
  "tags": {
    "ISO3166-2": "DE-MV",
    "admin_level": "4",
    "boundary": "land_area",
    "de:regionalschluessel": "13",
    "description": "Mecklenburg-Vorpommern (Landmasse)",
    "land_area": "administrative",
    "name": "Mecklenburg-Vorpommern",
    "name:ca": "Mecklemburg - Pomerània Occidental",
    "name:fr": "Mecklembourg-Poméranie-Occidentale",
    "name:hu": "Mecklenburg–Elő-Pomeránia",
    "name:pl": "Meklemburgia-Pomorze Przednie",
    "note": "NICHT boundary=administrative das ist Relation 28322",
    "type": "boundary",
    "wikidata": "Q1196",
    "wikipedia": "de:Mecklenburg-Vorpommern"
  }
},
{
  "type": "node",
  "id": 4704196543,
  "lat": 53.9696039,
  "lon": 11.0448560
},
{
  "type": "node",
  "id": 4704196544,
  "lat": 53.9695255,
  "lon": 11.0449085
},
{
  "type": "node",
  "id": 4704196545,
  "lat": 53.9695451,
  "lon": 11.0449929
},
{
  "type": "node",
  "id": 4704196546,
  "lat": 53.9696234,
  "lon": 11.0449404
},
{
  "type": "node",
  "id": 7096463623,
  "lat": 53.9284496,
  "lon": 11.2706069
},
{
  "type": "node",
  "id": 7096463624,
  "lat": 53.9284838,
  "lon": 11.2705157
},
{
  "type": "node",
  "id": 7096463625,
  "lat": 53.9286168,
  "lon": 11.2706696
},
{
  "type": "node",
  "id": 7096463626,
  "lat": 53.9285895,
  "lon": 11.2707286
},
{
  "type": "node",
  "id": 7096463627,
  "lat": 53.9285114,
  "lon": 11.2706719
},
{
  "type": "node",
  "id": 9944686331,
  "lat": 53.4854844,
  "lon": 12.3221526
},
{
  "type": "node",
  "id": 9944686332,
  "lat": 53.4854315,
  "lon": 12.3221793
},
{
  "type": "node",
  "id": 9944686333,
  "lat": 53.4853838,
  "lon": 12.3219122
},
{
  "type": "node",
  "id": 9944686334,
  "lat": 53.4854367,
  "lon": 12.3218855
},
{
  "type": "node",
  "id": 9933481811,
  "lat": 54.0960235,
  "lon": 12.0822589
},
{
  "type": "node",
  "id": 9933481812,
  "lat": 54.0959697,
  "lon": 12.0822082
},
{
  "type": "node",
  "id": 9933481813,
  "lat": 54.0959747,
  "lon": 12.0821930
},
{
  "type": "node",
  "id": 9933481814,
  "lat": 54.0960284,
  "lon": 12.0822436
},
{
  "type": "node",
  "id": 9933481816,
  "lat": 54.0958412,
  "lon": 12.0828927
},
{
  "type": "node",
  "id": 9933481817,
  "lat": 54.0958300,
  "lon": 12.0829169
},
{
  "type": "node",
  "id": 9933481818,
  "lat": 54.0958481,
  "lon": 12.0829412
},
{
  "type": "node",
  "id": 9933481819,
  "lat": 54.0958593,
  "lon": 12.0829170
},
{
  "type": "node",
  "id": 5812791166,
  "lat": 54.0998036,
  "lon": 12.0757983
},
{
  "type": "node",
  "id": 5812791167,
  "lat": 54.0997896,
  "lon": 12.0758856
},
{
  "type": "node",
  "id": 5812791168,
  "lat": 54.0997227,
  "lon": 12.0758543
},
{
  "type": "node",
  "id": 5812791169,
  "lat": 54.0997367,
  "lon": 12.0757670
},
{
  "type": "node",
  "id": 9933481748,
  "lat": 54.0987770,
  "lon": 12.0781949
},
{
  "type": "node",
  "id": 9933481749,
  "lat": 54.0987440,
  "lon": 12.0781709
},
{
  "type": "node",
  "id": 9933481750,
  "lat": 54.0987534,
  "lon": 12.0781335
},
{
  "type": "node",
  "id": 9933481751,
  "lat": 54.0987864,
  "lon": 12.0781575
},
{
  "type": "node",
  "id": 9933481752,
  "lat": 54.0988138,
  "lon": 12.0781446
},
{
  "type": "node",
  "id": 9933481753,
  "lat": 54.0987836,
  "lon": 12.0781227
},
{
  "type": "node",
  "id": 9933481754,
  "lat": 54.0987907,
  "lon": 12.0780942
},
{
  "type": "node",
  "id": 9933481755,
  "lat": 54.0988209,
  "lon": 12.0781160
},
{
  "type": "node",
  "id": 3189773802,
  "lat": 54.0997729,
  "lon": 12.0801161
},
{
  "type": "node",
  "id": 6822747746,
  "lat": 54.0994481,
  "lon": 12.0790501
},
{
  "type": "node",
  "id": 6822747747,
  "lat": 54.0994043,
  "lon": 12.0790198
},
{
  "type": "node",
  "id": 6822747748,
  "lat": 54.0993891,
  "lon": 12.0790909
},
{
  "type": "node",
  "id": 6822747749,
  "lat": 54.0994336,
  "lon": 12.0791180
},
{
  "type": "node",
  "id": 6822747757,
  "lat": 54.0993335,
  "lon": 12.0794607
},
{
  "type": "node",
  "id": 6822747758,
  "lat": 54.0993172,
  "lon": 12.0795228
},
{
  "type": "node",
  "id": 6822747759,
  "lat": 54.0992592,
  "lon": 12.0794818
},
{
  "type": "node",
  "id": 6822747760,
  "lat": 54.0992761,
  "lon": 12.0794146
},
{
  "type": "node",
  "id": 6862465332,
  "lat": 54.0992128,
  "lon": 12.0799324
},
{
  "type": "node",
  "id": 6862465333,
  "lat": 54.0991729,
  "lon": 12.0799054
},
{
  "type": "node",
  "id": 6862465334,
  "lat": 54.0991654,
  "lon": 12.0799300
},
{
  "type": "node",
  "id": 6862465335,
  "lat": 54.0991757,
  "lon": 12.0799359
},
{
  "type": "node",
  "id": 6862465336,
  "lat": 54.0991715,
  "lon": 12.0799488
},
{
  "type": "node",
  "id": 6862465337,
  "lat": 54.0992018,
  "lon": 12.0799722
},
{
  "type": "node",
  "id": 7038610764,
  "lat": 54.0989278,
  "lon": 12.0809863
},
{
  "type": "node",
  "id": 7038610765,
  "lat": 54.0989667,
  "lon": 12.0810170
},
{
  "type": "node",
  "id": 7038610766,
  "lat": 54.0989506,
  "lon": 12.0810765
},
{
  "type": "node",
  "id": 7038610770,
  "lat": 54.0985689,
  "lon": 12.0806538
},
{
  "type": "node",
  "id": 7038610771,
  "lat": 54.0985496,
  "lon": 12.0807134
},
{
  "type": "node",
  "id": 7038610772,
  "lat": 54.0985901,
  "lon": 12.0807514
},
{
  "type": "node",
  "id": 7038610773,
  "lat": 54.0986094,
  "lon": 12.0806919
},
{
  "type": "node",
  "id": 7038610775,
  "lat": 54.0989117,
  "lon": 12.0810458
},
{
  "type": "node",
  "id": 9933336565,
  "lat": 54.0971678,
  "lon": 12.0811139
},
{
  "type": "node",
  "id": 9933336566,
  "lat": 54.0971499,
  "lon": 12.0811724
},
{
  "type": "node",
  "id": 9933336567,
  "lat": 54.0971860,
  "lon": 12.0812032
},
{
  "type": "node",
  "id": 9933336568,
  "lat": 54.0972038,
  "lon": 12.0811451
},
{
  "type": "node",
  "id": 9933336571,
  "lat": 54.0983330,
  "lon": 12.0793503
},
{
  "type": "node",
  "id": 9933336572,
  "lat": 54.0983130,
  "lon": 12.0794239
},
{
  "type": "node",
  "id": 9933336573,
  "lat": 54.0982891,
  "lon": 12.0794057
},
{
  "type": "node",
  "id": 9933336574,
  "lat": 54.0983090,
  "lon": 12.0793292
},
{
  "type": "node",
  "id": 9933481728,
  "lat": 54.0997331,
  "lon": 12.0802673
},
{
  "type": "node",
  "id": 9933481729,
  "lat": 54.0997053,
  "lon": 12.0802508
},
{
  "type": "node",
  "id": 9933481730,
  "lat": 54.0997209,
  "lon": 12.0801749
},
{
  "type": "node",
  "id": 9933481731,
  "lat": 54.0997486,
  "lon": 12.0801914
},
{
  "type": "node",
  "id": 9933481732,
  "lat": 54.0997452,
  "lon": 12.0800996
},
{
  "type": "node",
  "id": 9933481733,
  "lat": 54.0997607,
  "lon": 12.0800237
},
{
  "type": "node",
  "id": 9933481734,
  "lat": 54.0997884,
  "lon": 12.0800402
},
{
  "type": "node",
  "id": 9933481758,
  "lat": 54.0984902,
  "lon": 12.0792072
},
{
  "type": "node",
  "id": 9933481759,
  "lat": 54.0984497,
  "lon": 12.0791782
},
{
  "type": "node",
  "id": 9933481760,
  "lat": 54.0984644,
  "lon": 12.0791186
},
{
  "type": "node",
  "id": 9933481761,
  "lat": 54.0985049,
  "lon": 12.0791476
},
{
  "type": "node",
  "id": 9933481762,
  "lat": 54.0982165,
  "lon": 12.0803709
},
{
  "type": "node",
  "id": 9933481763,
  "lat": 54.0982021,
  "lon": 12.0804238
},
{
  "type": "node",
  "id": 9933481764,
  "lat": 54.0981524,
  "lon": 12.0803845
},
{
  "type": "node",
  "id": 9933481765,
  "lat": 54.0981668,
  "lon": 12.0803316
},
{
  "type": "node",
  "id": 9933481766,
  "lat": 54.0975417,
  "lon": 12.0818325
},
{
  "type": "node",
  "id": 9933481767,
  "lat": 54.0975232,
  "lon": 12.0818989
},
{
  "type": "node",
  "id": 9933481768,
  "lat": 54.0975509,
  "lon": 12.0819213
},
{
  "type": "node",
  "id": 9933481769,
  "lat": 54.0975694,
  "lon": 12.0818550
},
{
  "type": "node",
  "id": 9933481770,
  "lat": 54.0977189,
  "lon": 12.0816641
},
{
  "type": "node",
  "id": 9933481771,
  "lat": 54.0977800,
  "lon": 12.0817138
},
{
  "type": "node",
  "id": 9933481772,
  "lat": 54.0977624,
  "lon": 12.0817771
},
{
  "type": "node",
  "id": 9933481773,
  "lat": 54.0977012,
  "lon": 12.0817274
},
{
  "type": "node",
  "id": 9933481803,
  "lat": 54.0978986,
  "lon": 12.0808403
},
{
  "type": "node",
  "id": 9933481804,
  "lat": 54.0978816,
  "lon": 12.0809026
},
{
  "type": "node",
  "id": 9933481805,
  "lat": 54.0979271,
  "lon": 12.0809387
},
{
  "type": "node",
  "id": 9933481806,
  "lat": 54.0979441,
  "lon": 12.0808764
},
{
  "type": "node",
  "id": 2897467617,
  "lat": 54.1156337,
  "lon": 12.1478388
},
{
  "type": "node",
  "id": 2898044846,
  "lat": 54.1155442,
  "lon": 12.1478878
},
{
  "type": "node",
  "id": 2898044848,
  "lat": 54.1155736,
  "lon": 12.1477890
},
{
  "type": "node",
  "id": 2898044851,
  "lat": 54.1156032,
  "lon": 12.1479392
},
{
  "type": "node",
  "id": 2473435381,
  "lat": 54.1109344,
  "lon": 12.1567676
},
{
  "type": "node",
  "id": 2473435383,
  "lat": 54.1109800,
  "lon": 12.1566261
},
{
  "type": "node",
  "id": 2475897811,
  "lat": 54.1142187,
  "lon": 12.1556477
},
{
  "type": "node",
  "id": 2839703411,
  "lat": 54.1109518,
  "lon": 12.1567847
},
{
  "type": "node",
  "id": 2839703416,
  "lat": 54.1109957,
  "lon": 12.1566398
},
{
  "type": "node",
  "id": 2839705350,
  "lat": 54.1123446,
  "lon": 12.1569148
},
{
  "type": "node",
  "id": 2839804019,
  "lat": 54.1118395,
  "lon": 12.1562236
},
{
  "type": "node",
  "id": 2839804022,
  "lat": 54.1118593,
  "lon": 12.1561508
},
{
  "type": "node",
  "id": 2839804024,
  "lat": 54.1118719,
  "lon": 12.1562492
},
{
  "type": "node",
  "id": 2839804027,
  "lat": 54.1118917,
  "lon": 12.1561765
},
{
  "type": "node",
  "id": 2839804195,
  "lat": 54.1142584,
  "lon": 12.1555077
},
{
  "type": "node",
  "id": 2839804196,
  "lat": 54.1142803,
  "lon": 12.1556989
},
{
  "type": "node",
  "id": 2839804197,
  "lat": 54.1143200,
  "lon": 12.1555604
},
{
  "type": "node",
  "id": 3331696490,
  "lat": 54.1136443,
  "lon": 12.1567491
},
{
  "type": "node",
  "id": 3331697199,
  "lat": 54.1136799,
  "lon": 12.1567804
},
{
  "type": "node",
  "id": 3331697200,
  "lat": 54.1136824,
  "lon": 12.1566233
},
{
  "type": "node",
  "id": 3331697210,
  "lat": 54.1137180,
  "lon": 12.1566546
},
{
  "type": "node",
  "id": 279078715,
  "lat": 54.1123651,
  "lon": 12.1569341
},
{
  "type": "node",
  "id": 2349121956,
  "lat": 54.1107076,
  "lon": 12.1569691
},
{
  "type": "node",
  "id": 2349121958,
  "lat": 54.1107388,
  "lon": 12.1569378
},
{
  "type": "node",
  "id": 2478828037,
  "lat": 54.1119366,
  "lon": 12.1583742
},
{
  "type": "node",
  "id": 2478828039,
  "lat": 54.1122260,
  "lon": 12.1594097
},
{
  "type": "node",
  "id": 2706126387,
  "lat": 54.1129670,
  "lon": 12.1581202
},
{
  "type": "node",
  "id": 2711053408,
  "lat": 54.1114556,
  "lon": 12.1599971
},
{
  "type": "node",
  "id": 2764988207,
  "lat": 54.1122059,
  "lon": 12.1594729
},
{
  "type": "node",
  "id": 2772161561,
  "lat": 54.1129868,
  "lon": 12.1581379
},
{
  "type": "node",
  "id": 2772161562,
  "lat": 54.1133363,
  "lon": 12.1584358
},
{
  "type": "node",
  "id": 2792495147,
  "lat": 54.1133035,
  "lon": 12.1584079
},
{
  "type": "node",
  "id": 2792495262,
  "lat": 54.1125919,
  "lon": 12.1576871
},
{
  "type": "node",
  "id": 2792495289,
  "lat": 54.1133654,
  "lon": 12.1583381
},
{
  "type": "node",
  "id": 2792495369,
  "lat": 54.1126108,
  "lon": 12.1576227
},
{
  "type": "node",
  "id": 2792495413,
  "lat": 54.1129673,
  "lon": 12.1580214
},
{
  "type": "node",
  "id": 2792495470,
  "lat": 54.1130103,
  "lon": 12.1580583
},
{
  "type": "node",
  "id": 2792495479,
  "lat": 54.1133340,
  "lon": 12.1583100
},
{
  "type": "node",
  "id": 2792495517,
  "lat": 54.1129438,
  "lon": 12.1581010
},
{
  "type": "node",
  "id": 2793803390,
  "lat": 54.1131481,
  "lon": 12.1594915
},
{
  "type": "node",
  "id": 2793803392,
  "lat": 54.1131157,
  "lon": 12.1595998
},
{
  "type": "node",
  "id": 2826490522,
  "lat": 54.1119979,
  "lon": 12.1590879
},
{
  "type": "node",
  "id": 2826490524,
  "lat": 54.1120049,
  "lon": 12.1590638
},
{
  "type": "node",
  "id": 2826490525,
  "lat": 54.1120110,
  "lon": 12.1590418
},
{
  "type": "node",
  "id": 2826490527,
  "lat": 54.1120193,
  "lon": 12.1590148
},
{
  "type": "node",
  "id": 2826490529,
  "lat": 54.1120228,
  "lon": 12.1591090
},
{
  "type": "node",
  "id": 2826490532,
  "lat": 54.1120298,
  "lon": 12.1590848
},
{
  "type": "node",
  "id": 2826490534,
  "lat": 54.1120361,
  "lon": 12.1590643
},
{
  "type": "node",
  "id": 2826490537,
  "lat": 54.1120444,
  "lon": 12.1590373
},
{
  "type": "node",
  "id": 2826505421,
  "lat": 54.1124208,
  "lon": 12.1580527
},
{
  "type": "node",
  "id": 2839703406,
  "lat": 54.1107433,
  "lon": 12.1571291
},
{
  "type": "node",
  "id": 2839703408,
  "lat": 54.1107793,
  "lon": 12.1571064
},
{
  "type": "node",
  "id": 2839703486,
  "lat": 54.1118999,
  "lon": 12.1583427
},
{
  "type": "node",
  "id": 2839703488,
  "lat": 54.1119171,
  "lon": 12.1582843
},
{
  "type": "node",
  "id": 2839703500,
  "lat": 54.1119543,
  "lon": 12.1583144
},
{
  "type": "node",
  "id": 2839705347,
  "lat": 54.1123174,
  "lon": 12.1569996
},
{
  "type": "node",
  "id": 2839705348,
  "lat": 54.1123388,
  "lon": 12.1570218
},
{
  "type": "node",
  "id": 2839735934,
  "lat": 54.1112269,
  "lon": 12.1577668
},
{
  "type": "node",
  "id": 2839735935,
  "lat": 54.1112500,
  "lon": 12.1576809
},
{
  "type": "node",
  "id": 2839735941,
  "lat": 54.1113067,
  "lon": 12.1578354
},
{
  "type": "node",
  "id": 2839735943,
  "lat": 54.1113304,
  "lon": 12.1577470
},
{
  "type": "node",
  "id": 2841521545,
  "lat": 54.1114268,
  "lon": 12.1599914
},
{
  "type": "node",
  "id": 2841521549,
  "lat": 54.1114513,
  "lon": 12.1600142
},
{
  "type": "node",
  "id": 2841521551,
  "lat": 54.1114587,
  "lon": 12.1583392
},
{
  "type": "node",
  "id": 2841521552,
  "lat": 54.1114472,
  "lon": 12.1599211
},
{
  "type": "node",
  "id": 2841521553,
  "lat": 54.1114557,
  "lon": 12.1598925
},
{
  "type": "node",
  "id": 2841521558,
  "lat": 54.1114802,
  "lon": 12.1599140
},
{
  "type": "node",
  "id": 2841521561,
  "lat": 54.1114733,
  "lon": 12.1582858
},
{
  "type": "node",
  "id": 2841521576,
  "lat": 54.1115813,
  "lon": 12.1584451
},
{
  "type": "node",
  "id": 2841521581,
  "lat": 54.1115961,
  "lon": 12.1583921
},
{
  "type": "node",
  "id": 2841521814,
  "lat": 54.1117728,
  "lon": 12.1586668
},
{
  "type": "node",
  "id": 2841521816,
  "lat": 54.1117861,
  "lon": 12.1586220
},
{
  "type": "node",
  "id": 2841521822,
  "lat": 54.1118169,
  "lon": 12.1587050
},
{
  "type": "node",
  "id": 2841521824,
  "lat": 54.1118302,
  "lon": 12.1586601
},
{
  "type": "node",
  "id": 2841521843,
  "lat": 54.1122766,
  "lon": 12.1595322
},
{
  "type": "node",
  "id": 2841521844,
  "lat": 54.1122958,
  "lon": 12.1594690
},
{
  "type": "node",
  "id": 3066012280,
  "lat": 54.1115050,
  "lon": 12.1607917
},
{
  "type": "node",
  "id": 3066012282,
  "lat": 54.1115262,
  "lon": 12.1607179
},
{
  "type": "node",
  "id": 3066012293,
  "lat": 54.1115899,
  "lon": 12.1608675
},
{
  "type": "node",
  "id": 3066012297,
  "lat": 54.1116096,
  "lon": 12.1607989
},
{
  "type": "node",
  "id": 3066014054,
  "lat": 54.1126801,
  "lon": 12.1606360
},
{
  "type": "node",
  "id": 3066014056,
  "lat": 54.1126895,
  "lon": 12.1606032
},
{
  "type": "node",
  "id": 3066014060,
  "lat": 54.1127264,
  "lon": 12.1606748
},
{
  "type": "node",
  "id": 3066014062,
  "lat": 54.1127358,
  "lon": 12.1606420
},
{
  "type": "node",
  "id": 10247020792,
  "lat": 54.1130780,
  "lon": 12.1595680
},
{
  "type": "node",
  "id": 10247020794,
  "lat": 54.1131103,
  "lon": 12.1594598
},
{
  "type": "node",
  "id": 10247020894,
  "lat": 54.1123199,
  "lon": 12.1579658
},
{
  "type": "node",
  "id": 10247020895,
  "lat": 54.1123350,
  "lon": 12.1579502
},
{
  "type": "node",
  "id": 10247020896,
  "lat": 54.1124274,
  "lon": 12.1580334
},
{
  "type": "node",
  "id": 10247020903,
  "lat": 54.1125833,
  "lon": 12.1575994
},
{
  "type": "node",
  "id": 10247020904,
  "lat": 54.1125645,
  "lon": 12.1576621
},
{
  "type": "node",
  "id": 5606942603,
  "lat": 53.7832006,
  "lon": 12.1757629
},
{
  "type": "node",
  "id": 5606942604,
  "lat": 53.7832202,
  "lon": 12.1756967
},
{
  "type": "node",
  "id": 5606942605,
  "lat": 53.7831265,
  "lon": 12.1756209
},
{
  "type": "node",
  "id": 5606942606,
  "lat": 53.7831086,
  "lon": 12.1756871
},
{
  "type": "node",
  "id": 5606942744,
  "lat": 53.7823479,
  "lon": 12.1755421
},
{
  "type": "node",
  "id": 5606942745,
  "lat": 53.7823159,
  "lon": 12.1755506
},
{
  "type": "node",
  "id": 5606942746,
  "lat": 53.7823244,
  "lon": 12.1756344
},
{
  "type": "node",
  "id": 5606942747,
  "lat": 53.7823572,
  "lon": 12.1756247
},
{
  "type": "node",
  "id": 5618907469,
  "lat": 53.7825057,
  "lon": 12.1757091
},
{
  "type": "node",
  "id": 5618907470,
  "lat": 53.7824919,
  "lon": 12.1757523
},
{
  "type": "node",
  "id": 5618907471,
  "lat": 53.7825230,
  "lon": 12.1757768
},
{
  "type": "node",
  "id": 5618907472,
  "lat": 53.7825368,
  "lon": 12.1757348
},
{
  "type": "node",
  "id": 5618907473,
  "lat": 53.7822919,
  "lon": 12.1760757
},
{
  "type": "node",
  "id": 5618907474,
  "lat": 53.7822622,
  "lon": 12.1760523
},
{
  "type": "node",
  "id": 5618907475,
  "lat": 53.7822332,
  "lon": 12.1761597
},
{
  "type": "node",
  "id": 5618907476,
  "lat": 53.7822615,
  "lon": 12.1761831
},
{
  "type": "node",
  "id": 10111202901,
  "lat": 54.0858095,
  "lon": 12.1887154
},
{
  "type": "node",
  "id": 10111202902,
  "lat": 54.0857661,
  "lon": 12.1887148
},
{
  "type": "node",
  "id": 10111202903,
  "lat": 54.0857969,
  "lon": 12.1886287
},
{
  "type": "node",
  "id": 10111202904,
  "lat": 54.0858269,
  "lon": 12.1886598
},
{
  "type": "node",
  "id": 7369878455,
  "lat": 54.1016328,
  "lon": 12.1739353
},
{
  "type": "node",
  "id": 7369878456,
  "lat": 54.1016206,
  "lon": 12.1739171
},
{
  "type": "node",
  "id": 7369878457,
  "lat": 54.1016350,
  "lon": 12.1738892
},
{
  "type": "node",
  "id": 7369878458,
  "lat": 54.1016472,
  "lon": 12.1739074
},
{
  "type": "node",
  "id": 7369878459,
  "lat": 54.1018327,
  "lon": 12.1742420
},
{
  "type": "node",
  "id": 7369878460,
  "lat": 54.1018476,
  "lon": 12.1742652
},
{
  "type": "node",
  "id": 7369878461,
  "lat": 54.1018236,
  "lon": 12.1743103
},
{
  "type": "node",
  "id": 7369878462,
  "lat": 54.1018086,
  "lon": 12.1742871
},
{
  "type": "node",
  "id": 7369878463,
  "lat": 54.1021558,
  "lon": 12.1736435
},
{
  "type": "node",
  "id": 7369878464,
  "lat": 54.1021695,
  "lon": 12.1736649
},
{
  "type": "node",
  "id": 7369878465,
  "lat": 54.1021894,
  "lon": 12.1736277
},
{
  "type": "node",
  "id": 7369878466,
  "lat": 54.1021756,
  "lon": 12.1736063
},
{
  "type": "node",
  "id": 7369878467,
  "lat": 54.1016856,
  "lon": 12.1727591
},
{
  "type": "node",
  "id": 7369878468,
  "lat": 54.1016707,
  "lon": 12.1727867
},
{
  "type": "node",
  "id": 7369878469,
  "lat": 54.1016553,
  "lon": 12.1727624
},
{
  "type": "node",
  "id": 7369878470,
  "lat": 54.1016702,
  "lon": 12.1727349
},
{
  "type": "node",
  "id": 7369878471,
  "lat": 54.1013761,
  "lon": 12.1734872
},
{
  "type": "node",
  "id": 7369878472,
  "lat": 54.1013605,
  "lon": 12.1735163
},
{
  "type": "node",
  "id": 7369878473,
  "lat": 54.1013370,
  "lon": 12.1734796
},
{
  "type": "node",
  "id": 7369878474,
  "lat": 54.1013526,
  "lon": 12.1734505
},
{
  "type": "node",
  "id": 6426506642,
  "lat": 53.3728561,
  "lon": 12.7669102
},
{
  "type": "node",
  "id": 6426512918,
  "lat": 53.3728911,
  "lon": 12.7670024
},
{
  "type": "node",
  "id": 6426512923,
  "lat": 53.3728160,
  "lon": 12.7671066
},
{
  "type": "node",
  "id": 6426512941,
  "lat": 53.3727785,
  "lon": 12.7670135
},
{
  "type": "node",
  "id": 11151932531,
  "lat": 53.3600600,
  "lon": 12.9369364
},
{
  "type": "node",
  "id": 11151932532,
  "lat": 53.3600628,
  "lon": 12.9368920
},
{
  "type": "node",
  "id": 11151932533,
  "lat": 53.3600751,
  "lon": 12.9368942
},
{
  "type": "node",
  "id": 11151932534,
  "lat": 53.3600723,
  "lon": 12.9369386
},
{
  "type": "node",
  "id": 8977721849,
  "lat": 53.3615286,
  "lon": 13.0918771
},
{
  "type": "node",
  "id": 8977721850,
  "lat": 53.3615420,
  "lon": 13.0918630
},
{
  "type": "node",
  "id": 8977721851,
  "lat": 53.3615639,
  "lon": 13.0919213
},
{
  "type": "node",
  "id": 8977721852,
  "lat": 53.3615188,
  "lon": 13.0919688
},
{
  "type": "node",
  "id": 8977721853,
  "lat": 53.3614970,
  "lon": 13.0919104
},
{
  "type": "node",
  "id": 8977721854,
  "lat": 53.3615152,
  "lon": 13.0918913
},
{
  "type": "node",
  "id": 8977721981,
  "lat": 53.3615215,
  "lon": 13.0918845
},
{
  "type": "node",
  "id": 3469117008,
  "lat": 53.5657652,
  "lon": 13.2641203
},
{
  "type": "node",
  "id": 3469117009,
  "lat": 53.5657679,
  "lon": 13.2640613
},
{
  "type": "node",
  "id": 3469117010,
  "lat": 53.5657849,
  "lon": 13.2641166
},
{
  "type": "node",
  "id": 3469117011,
  "lat": 53.5657854,
  "lon": 13.2640622
},
{
  "type": "node",
  "id": 10695890464,
  "lat": 53.5715161,
  "lon": 13.2560757
},
{
  "type": "node",
  "id": 10731855780,
  "lat": 53.5715097,
  "lon": 13.2561436
},
{
  "type": "node",
  "id": 10731855781,
  "lat": 53.5714863,
  "lon": 13.2561415
},
{
  "type": "node",
  "id": 10731855782,
  "lat": 53.5714888,
  "lon": 13.2560744
},
{
  "type": "node",
  "id": 10731855786,
  "lat": 53.5715140,
  "lon": 13.2561440
},
{
  "type": "node",
  "id": 10731855793,
  "lat": 53.5714957,
  "lon": 13.2560747
},
{
  "type": "node",
  "id": 6900151658,
  "lat": 53.5574970,
  "lon": 13.2699887
},
{
  "type": "node",
  "id": 6900151659,
  "lat": 53.5574779,
  "lon": 13.2699860
},
{
  "type": "node",
  "id": 6900151660,
  "lat": 53.5574882,
  "lon": 13.2698559
},
{
  "type": "node",
  "id": 6900151661,
  "lat": 53.5575105,
  "lon": 13.2698599
},
{
  "type": "node",
  "id": 7281018657,
  "lat": 53.5585995,
  "lon": 13.2736073
},
{
  "type": "node",
  "id": 7281018658,
  "lat": 53.5585916,
  "lon": 13.2736861
},
{
  "type": "node",
  "id": 7281018659,
  "lat": 53.5585503,
  "lon": 13.2736751
},
{
  "type": "node",
  "id": 7281018660,
  "lat": 53.5585956,
  "lon": 13.2736464
},
{
  "type": "node",
  "id": 7281018661,
  "lat": 53.5585577,
  "lon": 13.2735962
},
{
  "type": "node",
  "id": 9178053417,
  "lat": 53.5532868,
  "lon": 13.2731947
},
{
  "type": "node",
  "id": 9178053418,
  "lat": 53.5532392,
  "lon": 13.2731984
},
{
  "type": "node",
  "id": 9178053419,
  "lat": 53.5532765,
  "lon": 13.2732541
},
{
  "type": "node",
  "id": 9178053420,
  "lat": 53.5532878,
  "lon": 13.2732317
},
{
  "type": "node",
  "id": 9178053421,
  "lat": 53.5532403,
  "lon": 13.2732401
},
{
  "type": "node",
  "id": 9178053422,
  "lat": 53.5532514,
  "lon": 13.2732561
},
{
  "type": "node",
  "id": 3860421457,
  "lat": 54.1270394,
  "lon": 12.0707482
},
{
  "type": "node",
  "id": 9232895962,
  "lat": 54.1294037,
  "lon": 12.0685459
},
{
  "type": "node",
  "id": 9232895963,
  "lat": 54.1294030,
  "lon": 12.0686877
},
{
  "type": "node",
  "id": 9232895964,
  "lat": 54.1294512,
  "lon": 12.0686884
},
{
  "type": "node",
  "id": 9232895965,
  "lat": 54.1294519,
  "lon": 12.0685466
},
{
  "type": "node",
  "id": 9232895966,
  "lat": 54.1293693,
  "lon": 12.0692221
},
{
  "type": "node",
  "id": 9232895967,
  "lat": 54.1293692,
  "lon": 12.0692822
},
{
  "type": "node",
  "id": 9232895968,
  "lat": 54.1293053,
  "lon": 12.0692821
},
{
  "type": "node",
  "id": 9232895969,
  "lat": 54.1293053,
  "lon": 12.0692219
},
{
  "type": "node",
  "id": 9377424943,
  "lat": 54.1294409,
  "lon": 12.0692462
},
{
  "type": "node",
  "id": 9377424944,
  "lat": 54.1294403,
  "lon": 12.0693605
},
{
  "type": "node",
  "id": 9377424945,
  "lat": 54.1294289,
  "lon": 12.0693603
},
{
  "type": "node",
  "id": 9377424946,
  "lat": 54.1294295,
  "lon": 12.0692460
},
{
  "type": "node",
  "id": 10113477452,
  "lat": 54.1270172,
  "lon": 12.0708180
},
{
  "type": "node",
  "id": 10113477453,
  "lat": 54.1270614,
  "lon": 12.0708602
},
{
  "type": "node",
  "id": 10113477454,
  "lat": 54.1270834,
  "lon": 12.0707912
},
{
  "type": "node",
  "id": 11054326667,
  "lat": 54.2474098,
  "lon": 12.2127163
},
{
  "type": "node",
  "id": 11054326668,
  "lat": 54.2473904,
  "lon": 12.2127896
},
{
  "type": "node",
  "id": 11054326666,
  "lat": 54.2475430,
  "lon": 12.2128192
},
{
  "type": "node",
  "id": 11054326669,
  "lat": 54.2475237,
  "lon": 12.2128924
},
{
  "type": "node",
  "id": 6341449019,
  "lat": 54.2568329,
  "lon": 12.2807388
},
{
  "type": "node",
  "id": 6341449020,
  "lat": 54.2568345,
  "lon": 12.2805511
},
{
  "type": "node",
  "id": 6341449021,
  "lat": 54.2569739,
  "lon": 12.2805752
},
{
  "type": "node",
  "id": 6341449022,
  "lat": 54.2569630,
  "lon": 12.2807469
},
{
  "type": "node",
  "id": 5511554990,
  "lat": 54.2910253,
  "lon": 12.3392781
},
{
  "type": "node",
  "id": 5511554991,
  "lat": 54.2909961,
  "lon": 12.3392817
},
{
  "type": "node",
  "id": 5511554992,
  "lat": 54.2909996,
  "lon": 12.3393663
},
{
  "type": "node",
  "id": 5511554993,
  "lat": 54.2910288,
  "lon": 12.3393628
},
{
  "type": "node",
  "id": 5511554994,
  "lat": 54.2919503,
  "lon": 12.3373423
},
{
  "type": "node",
  "id": 5511554995,
  "lat": 54.2919377,
  "lon": 12.3373816
},
{
  "type": "node",
  "id": 5511554996,
  "lat": 54.2919018,
  "lon": 12.3373479
},
{
  "type": "node",
  "id": 5511554997,
  "lat": 54.2919143,
  "lon": 12.3373086
},
{
  "type": "node",
  "id": 9049508453,
  "lat": 54.6635526,
  "lon": 13.2774930
},
{
  "type": "node",
  "id": 9049508454,
  "lat": 54.6635251,
  "lon": 13.2775021
},
{
  "type": "node",
  "id": 9049508455,
  "lat": 54.6635309,
  "lon": 13.2775539
},
{
  "type": "node",
  "id": 9049508456,
  "lat": 54.6635583,
  "lon": 13.2775448
},
{
  "type": "node",
  "id": 9049508457,
  "lat": 54.6638355,
  "lon": 13.2770954
},
{
  "type": "node",
  "id": 9049508458,
  "lat": 54.6638287,
  "lon": 13.2771423
},
{
  "type": "node",
  "id": 9049508459,
  "lat": 54.6638584,
  "lon": 13.2771549
},
{
  "type": "node",
  "id": 9049508460,
  "lat": 54.6638651,
  "lon": 13.2771081
},
{
  "type": "node",
  "id": 2429609495,
  "lat": 54.1063912,
  "lon": 13.8403928
},
{
  "type": "node",
  "id": 2429609497,
  "lat": 54.1063976,
  "lon": 13.8403809
},
{
  "type": "node",
  "id": 2429609500,
  "lat": 54.1064110,
  "lon": 13.8404241
},
{
  "type": "node",
  "id": 2429609501,
  "lat": 54.1064175,
  "lon": 13.8404121
},
{
  "type": "node",
  "id": 5491606229,
  "lat": 54.0400302,
  "lon": 14.0257939
},
{
  "type": "node",
  "id": 5491606230,
  "lat": 54.0399993,
  "lon": 14.0258859
},
{
  "type": "node",
  "id": 5493352415,
  "lat": 54.0399461,
  "lon": 14.0258378
},
{
  "type": "node",
  "id": 5493352416,
  "lat": 54.0399766,
  "lon": 14.0257424
},
{
  "type": "node",
  "id": 2337108221,
  "lat": 54.5224331,
  "lon": 13.5574876
},
{
  "type": "node",
  "id": 2337108223,
  "lat": 54.5225078,
  "lon": 13.5570648
},
{
  "type": "node",
  "id": 2337108225,
  "lat": 54.5226065,
  "lon": 13.5575979
},
{
  "type": "node",
  "id": 2337108227,
  "lat": 54.5226492,
  "lon": 13.5570326
},
{
  "type": "node",
  "id": 2337108229,
  "lat": 54.5227079,
  "lon": 13.5570693
},
{
  "type": "node",
  "id": 9282443472,
  "lat": 54.5148598,
  "lon": 13.6033366
},
{
  "type": "node",
  "id": 9282443473,
  "lat": 54.5148510,
  "lon": 13.6033539
},
{
  "type": "node",
  "id": 9282443474,
  "lat": 54.5148107,
  "lon": 13.6032935
},
{
  "type": "node",
  "id": 9282443475,
  "lat": 54.5148194,
  "lon": 13.6032762
},
{
  "type": "node",
  "id": 9267371845,
  "lat": 54.5120419,
  "lon": 13.6079846
},
{
  "type": "node",
  "id": 9267371846,
  "lat": 54.5120346,
  "lon": 13.6080645
},
{
  "type": "node",
  "id": 9267371847,
  "lat": 54.5120145,
  "lon": 13.6080590
},
{
  "type": "node",
  "id": 9267371848,
  "lat": 54.5120218,
  "lon": 13.6079791
},
{
  "type": "node",
  "id": 9207682008,
  "lat": 54.5161022,
  "lon": 13.6212032
},
{
  "type": "node",
  "id": 9207682009,
  "lat": 54.5161119,
  "lon": 13.6211158
},
{
  "type": "node",
  "id": 9260006625,
  "lat": 54.5135706,
  "lon": 13.6272257
},
{
  "type": "node",
  "id": 9260006626,
  "lat": 54.5135424,
  "lon": 13.6272773
},
{
  "type": "node",
  "id": 9260006627,
  "lat": 54.5134942,
  "lon": 13.6271993
},
{
  "type": "node",
  "id": 9260006628,
  "lat": 54.5135224,
  "lon": 13.6271477
},
{
  "type": "node",
  "id": 9267149760,
  "lat": 54.5139485,
  "lon": 13.6284368
},
{
  "type": "node",
  "id": 9267149761,
  "lat": 54.5139666,
  "lon": 13.6285221
},
{
  "type": "node",
  "id": 9267149762,
  "lat": 54.5139276,
  "lon": 13.6285466
},
{
  "type": "node",
  "id": 9267149763,
  "lat": 54.5139095,
  "lon": 13.6284614
},
{
  "type": "node",
  "id": 9267149764,
  "lat": 54.5141010,
  "lon": 13.6291750
},
{
  "type": "node",
  "id": 9267149765,
  "lat": 54.5140972,
  "lon": 13.6293325
},
{
  "type": "node",
  "id": 9267149766,
  "lat": 54.5140559,
  "lon": 13.6293295
},
{
  "type": "node",
  "id": 9267149767,
  "lat": 54.5140597,
  "lon": 13.6291720
},
{
  "type": "node",
  "id": 9267149768,
  "lat": 54.5133267,
  "lon": 13.6269640
},
{
  "type": "node",
  "id": 9267149769,
  "lat": 54.5133160,
  "lon": 13.6270392
},
{
  "type": "node",
  "id": 9267149770,
  "lat": 54.5132725,
  "lon": 13.6270208
},
{
  "type": "node",
  "id": 9267149771,
  "lat": 54.5132833,
  "lon": 13.6269456
},
{
  "type": "node",
  "id": 9267149772,
  "lat": 54.5128871,
  "lon": 13.6269037
},
{
  "type": "node",
  "id": 9267149773,
  "lat": 54.5128946,
  "lon": 13.6269872
},
{
  "type": "node",
  "id": 9267149774,
  "lat": 54.5128498,
  "lon": 13.6269992
},
{
  "type": "node",
  "id": 9267149775,
  "lat": 54.5128422,
  "lon": 13.6269157
},
{
  "type": "node",
  "id": 9267149778,
  "lat": 54.5123675,
  "lon": 13.6275634
},
{
  "type": "node",
  "id": 9267149779,
  "lat": 54.5123371,
  "lon": 13.6276416
},
{
  "type": "node",
  "id": 9267149780,
  "lat": 54.5123063,
  "lon": 13.6276060
},
{
  "type": "node",
  "id": 9267149781,
  "lat": 54.5123367,
  "lon": 13.6275278
},
{
  "type": "node",
  "id": 9267149784,
  "lat": 54.5122337,
  "lon": 13.6281594
},
{
  "type": "node",
  "id": 9267149785,
  "lat": 54.5121630,
  "lon": 13.6282835
},
{
  "type": "node",
  "id": 9267149786,
  "lat": 54.5121134,
  "lon": 13.6281995
},
{
  "type": "node",
  "id": 9267149787,
  "lat": 54.5121840,
  "lon": 13.6280755
},
{
  "type": "node",
  "id": 9207321724,
  "lat": 54.5166670,
  "lon": 13.6185769
},
{
  "type": "node",
  "id": 9207321725,
  "lat": 54.5166577,
  "lon": 13.6186575
},
{
  "type": "node",
  "id": 9207321726,
  "lat": 54.5165680,
  "lon": 13.6186266
},
{
  "type": "node",
  "id": 9207321727,
  "lat": 54.5165774,
  "lon": 13.6185460
},
{
  "type": "node",
  "id": 9207321728,
  "lat": 54.5163762,
  "lon": 13.6189809
},
{
  "type": "node",
  "id": 9207321729,
  "lat": 54.5163686,
  "lon": 13.6191121
},
{
  "type": "node",
  "id": 9207321730,
  "lat": 54.5163280,
  "lon": 13.6191052
},
{
  "type": "node",
  "id": 9207321731,
  "lat": 54.5163356,
  "lon": 13.6189740
},
{
  "type": "node",
  "id": 9207321732,
  "lat": 54.5163104,
  "lon": 13.6201616
},
{
  "type": "node",
  "id": 9207321733,
  "lat": 54.5163004,
  "lon": 13.6202876
},
{
  "type": "node",
  "id": 9207321734,
  "lat": 54.5162608,
  "lon": 13.6202783
},
{
  "type": "node",
  "id": 9207321735,
  "lat": 54.5162708,
  "lon": 13.6201523
},
{
  "type": "node",
  "id": 9207321736,
  "lat": 54.5167362,
  "lon": 13.6198994
},
{
  "type": "node",
  "id": 9207321737,
  "lat": 54.5167251,
  "lon": 13.6199989
},
{
  "type": "node",
  "id": 9207321738,
  "lat": 54.5166810,
  "lon": 13.6199843
},
{
  "type": "node",
  "id": 9207321739,
  "lat": 54.5166920,
  "lon": 13.6198848
},
{
  "type": "node",
  "id": 9207682006,
  "lat": 54.5161771,
  "lon": 13.6211372
},
{
  "type": "node",
  "id": 9207682007,
  "lat": 54.5161674,
  "lon": 13.6212246
},
{
  "type": "node",
  "id": 9314906956,
  "lat": 54.5179775,
  "lon": 13.6223684
},
{
  "type": "node",
  "id": 9314906957,
  "lat": 54.5179490,
  "lon": 13.6225219
},
{
  "type": "node",
  "id": 9314906958,
  "lat": 54.5179151,
  "lon": 13.6225033
},
{
  "type": "node",
  "id": 9314906959,
  "lat": 54.5179436,
  "lon": 13.6223497
},
{
  "type": "node",
  "id": 9314906966,
  "lat": 54.5176500,
  "lon": 13.6200345
},
{
  "type": "node",
  "id": 9314906967,
  "lat": 54.5176316,
  "lon": 13.6201845
},
{
  "type": "node",
  "id": 9314906968,
  "lat": 54.5175887,
  "lon": 13.6201689
},
{
  "type": "node",
  "id": 9314906969,
  "lat": 54.5176071,
  "lon": 13.6200189
},
{
  "type": "node",
  "id": 9210234964,
  "lat": 54.5154823,
  "lon": 13.6363186
},
{
  "type": "node",
  "id": 9210234965,
  "lat": 54.5154995,
  "lon": 13.6363802
},
{
  "type": "node",
  "id": 9210234966,
  "lat": 54.5154521,
  "lon": 13.6364194
},
{
  "type": "node",
  "id": 9210234967,
  "lat": 54.5154349,
  "lon": 13.6363578
},
{
  "type": "node",
  "id": 9218920160,
  "lat": 54.5133668,
  "lon": 13.6348011
},
{
  "type": "node",
  "id": 9218920161,
  "lat": 54.5133905,
  "lon": 13.6348855
},
{
  "type": "node",
  "id": 9218920162,
  "lat": 54.5133561,
  "lon": 13.6349141
},
{
  "type": "node",
  "id": 9218920163,
  "lat": 54.5133324,
  "lon": 13.6348298
}

  ]
}
