{
  "version": 0.6,
  "generator": "Overpass API 0.7.61.5 4133829e",
  "osm3s": {
    "timestamp_osm_base": "2023-09-05T10:50:10Z",
    "timestamp_areas_base": "2023-09-05T08:20:29Z",
    "copyright": "The data included in this document is from www.openstreetmap.org. The data is made available under ODbL."
  },
  "elements": [

{
  "type": "way",
  "id": 18178081,
  "nodes": [
    187643764,
    187643769,
    187643774,
    1242574615,
    187643779,
    26836010,
    1384323313,
    1384321654,
    1384323191,
    1384322725,
    187643791,
    1385780413,
    187643764
  ],
  "tags": {
    "landuse": "landfill"
  }
},
{
  "type": "way",
  "id": 51977252,
  "nodes": [
    3151488345,
    8517770169,
    8517770168,
    8517770167,
    8517770166,
    8517770165,
    8517770164,
    3151488342,
    8517770163,
    8517770162,
    8517770161,
    8517770160,
    8517770159,
    8517770158,
    8517770157,
    8517770156,
    8517770155,
    8517770154,
    4870804007,
    4870804008,
    4870803347,
    4870803346,
    4870803345,
    8039709172,
    8039709171,
    166902992,
    662811892,
    166902994,
    542558576,
    166902997,
    3099114171,
    3099114188,
    2180611063,
    2180611073,
    3099114200,
    2180611103,
    3099114201,
    8517770175,
    8517770176,
    8517770178,
    8517770177,
    8517770179,
    8517770180,
    8517770181,
    8517770183,
    8517770182,
    8517770184,
    3314841214,
    8517770174,
    8517770172,
    8517770173,
    3151488344,
    8517770171,
    8517770170,
    3151488345
  ],
  "tags": {
    "access": "private",
    "barrier": "fence",
    "disused": "yes",
    "fence_type": "metal",
    "landuse": "landfill",
    "name": "ehem. Deponie Arkenberge",
    "website": "http://www.heim-gruppe.de/index.php/heim-deponie-recycling.html",
    "wikipedia": "de:Berlin-Arkenberge"
  }
},
{
  "type": "way",
  "id": 57107244,
  "nodes": [
    369767974,
    369767973,
    669949956,
    669949955,
    8046408567,
    669949954,
    669949953,
    669949952,
    669949950,
    669949948,
    669949946,
    669949944,
    669949941,
    369767968,
    669949938,
    669949936,
    369767966,
    669949933,
    669949931,
    669949929,
    669949928,
    369767964,
    369767962,
    369767959,
    669949927,
    669949926,
    669949925,
    669949924,
    669949923,
    669949922,
    669949921,
    369767957,
    669949920,
    369767956,
    669949919,
    369767954,
    6937618458,
    369767951,
    669949966,
    369767949,
    369767948,
    669949965,
    6937618459,
    669949964,
    669949963,
    6937618457,
    369767974
  ],
  "tags": {
    "landuse": "landfill"
  }
},
{
  "type": "way",
  "id": 101008300,
  "nodes": [
    92612971,
    1166711290,
    92612976,
    7904860432,
    7904860433,
    92612967,
    7904860423,
    92612970,
    92612962,
    92612964,
    92613002,
    7904860429,
    7904860428,
    277521946,
    1830214064,
    7904860426,
    7904860427,
    7904860424,
    7904860425,
    277675181,
    1166711562,
    92612971
  ],
  "tags": {
    "access": "private",
    "barrier": "fence",
    "fence_type": "wire",
    "height": "2",
    "image": "https://photos.app.goo.gl/CckUMJJyhuEhTQq19",
    "landuse": "landfill",
    "name": "Deponie Eichberg"
  }
},
{
  "type": "way",
  "id": 125668427,
  "nodes": [
    1395209157,
    1395209154,
    1395209149,
    1395209152,
    1395209157
  ],
  "tags": {
    "content": "coal",
    "landuse": "landfill"
  }
},
{
  "type": "way",
  "id": 125742284,
  "nodes": [
    1329344664,
    1395881377,
    1395881457,
    1395881301,
    1395881153,
    1329344664
  ],
  "tags": {
    "landuse": "landfill"
  }
},
{
  "type": "way",
  "id": 219575290,
  "nodes": [
    2287214639,
    2287214633,
    2287214641,
    2287214643,
    2287214639
  ],
  "tags": {
    "content": "coal",
    "landuse": "landfill"
  }
},
{
  "type": "way",
  "id": 247168054,
  "nodes": [
    558702383,
    2540998961,
    558708041,
    558708043,
    558708044,
    558708050,
    558708051,
    558708053,
    1286254791,
    4975579296,
    4975579294,
    4975579293,
    4975579295,
    4975579292,
    270647694,
    1638991841,
    270647698,
    270647697,
    558702379,
    558702380,
    558703237,
    4975579276,
    558702381,
    558702382,
    558702383
  ],
  "tags": {
    "barrier": "fence",
    "landuse": "landfill",
    "name": "Lagerplatz Straßen- und Grünflächenamt Marzahn Hellersdorf"
  }
},
{
  "type": "way",
  "id": 266790739,
  "nodes": [
    1855529183,
    1855529179,
    1855529176,
    1855529181,
    1855529183
  ],
  "tags": {
    "landuse": "landfill"
  }
},
{
  "type": "way",
  "id": 298204751,
  "nodes": [
    3021043851,
    3021043849,
    6457876225,
    5873814583,
    3021043848,
    3021043850,
    3021043852,
    3021043853,
    3021043851
  ],
  "tags": {
    "landuse": "landfill"
  }
},
{
  "type": "way",
  "id": 412127531,
  "nodes": [
    4136568431,
    4136568439,
    5264089121,
    5264079320,
    4136568448,
    4136568454,
    4136568387,
    4136568360,
    4136568426,
    4136568431
  ],
  "tags": {
    "addr:city": "Berlin",
    "addr:country": "DE",
    "addr:housenumber": "60",
    "addr:inclusion": "potential",
    "addr:postcode": "12681",
    "addr:street": "Hohenschönhauser Straße",
    "addr:suburb": "Marzahn",
    "landuse": "landfill",
    "name": "SaGeMa GmbH Erdwirtschaft & Kompostierung",
    "source": "Geoportal Berlin / Hauskoordinaten",
    "website": "http://www.sagema-berlin.de/"
  }
},
{
  "type": "way",
  "id": 417696248,
  "nodes": [
    4181958133,
    4181958127,
    4181958121,
    4181958129,
    4181958133
  ],
  "tags": {
    "content": "coal",
    "landuse": "landfill"
  }
},
{
  "type": "way",
  "id": 442118216,
  "nodes": [
    4398099035,
    4398099036,
    4398099038,
    4398099039,
    4398099040,
    4398099037,
    4398099033,
    281880085,
    281879855,
    281879857,
    281879859,
    281879862,
    4398098997,
    56007300,
    4398098995,
    4398098996,
    4398098999,
    4398099000,
    4398099003,
    4398099007,
    4398099010,
    8774954178,
    4398099013,
    4398099014,
    4398099015,
    4398099017,
    4398099020,
    4398099022,
    4398099023,
    4398099024,
    4398099026,
    4398099029,
    4398099030,
    4398099032,
    4398099035
  ],
  "tags": {
    "amenity": "recycling",
    "landuse": "landfill",
    "name": "BTB-Recycling-Hof",
    "recycling:building": "yes",
    "recycling_type": "centre"
  }
},
{
  "type": "way",
  "id": 485145225,
  "nodes": [
    55185676,
    8530213732,
    8530213733,
    6556873739,
    656632844,
    4779128622,
    6509132276,
    4779127619,
    5046462252,
    281880835,
    10203428993,
    4779127620,
    55185676
  ],
  "tags": {
    "barrier": "fence",
    "landuse": "landfill"
  }
},
{
  "type": "way",
  "id": 1074885539,
  "nodes": [
    9858712757,
    9858712758,
    9858712759,
    9858712760,
    9858712761,
    9858712762,
    9858712763,
    9858712764,
    9858712757
  ],
  "tags": {
    "landuse": "landfill"
  }
},
{
  "type": "area",
  "id": 3600062422,
  "tags": {
    "ISO3166-2": "DE-BE",
    "TMC:cid_58:tabcd_1:Class": "Area",
    "TMC:cid_58:tabcd_1:LCLversion": "12.0",
    "TMC:cid_58:tabcd_1:LocationCode": "266",
    "admin_level": "4",
    "alt_name:vi": "Béc-lin",
    "boundary": "administrative",
    "contact:facebook": "http://www.facebook.com/Berlin",
    "de:amtlicher_gemeindeschluessel": "11000000",
    "de:place": "city",
    "de:regionalschluessel": "110000000000",
    "geographical_region": "Barnim;Berliner Urstromtal;Teltow;Nauener Platte",
    "license_plate_code": "B",
    "name": "Berlin",
    "name:af": "Berlyn",
    "name:als": "Berlin",
    "name:am": "በርሊን",
    "name:an": "Berlín",
    "name:ang": "Berlin",
    "name:ar": "برلين",
    "name:arc": "ܒܪܠܝܢ",
    "name:ast": "Berlín",
    "name:az": "Berlin",
    "name:ba": "Берлин",
    "name:bar": "Berlin",
    "name:bat-smg": "Berlīns",
    "name:be": "Берлін",
    "name:be-tarask": "Бэрлін",
    "name:bg": "Берлин",
    "name:bi": "Berlin",
    "name:bn": "বার্লিন",
    "name:bo": "པེ་ལིང་",
    "name:br": "Berlin",
    "name:bs": "Berlin",
    "name:ca": "Berlín",
    "name:cbk-zam": "Berlín",
    "name:crh": "Berlin",
    "name:cs": "Berlín",
    "name:csb": "Berlëno",
    "name:cu": "Берлинъ",
    "name:cv": "Берлин",
    "name:cy": "Berlin",
    "name:da": "Berlin",
    "name:de": "Berlin",
    "name:diq": "Berlin",
    "name:dsb": "Barliń",
    "name:el": "Βερολίνο",
    "name:en": "Berlin",
    "name:eo": "Berlino",
    "name:es": "Berlín",
    "name:et": "Berliin",
    "name:eu": "Berlin",
    "name:fa": "برلین",
    "name:fi": "Berliini",
    "name:fo": "Berlin",
    "name:fr": "Berlin",
    "name:frp": "Bèrlin",
    "name:fur": "Berlin",
    "name:fy": "Berlyn",
    "name:ga": "Beirlín",
    "name:gd": "Berlin",
    "name:gl": "Berlín",
    "name:gn": "Berlin",
    "name:gv": "Berleen",
    "name:haw": "Pelelina",
    "name:he": "ברלין",
    "name:hi": "बर्लिन",
    "name:hr": "Berlin",
    "name:hsb": "Berlin",
    "name:ht": "Bèlen",
    "name:hu": "Berlin",
    "name:hy": "Բեռլին",
    "name:ia": "Berlin",
    "name:id": "Berlin",
    "name:ie": "Berlin",
    "name:ilo": "Berlin",
    "name:io": "Berlin",
    "name:is": "Berlín",
    "name:it": "Berlino",
    "name:ja": "ベルリン",
    "name:jbo": "berlin",
    "name:jv": "Berlin",
    "name:ka": "ბერლინი",
    "name:kab": "Berlin",
    "name:kk": "Берлин",
    "name:ko": "베를린",
    "name:ksh": "Bälliin",
    "name:ku": "Berlîn",
    "name:kv": "Берлин",
    "name:kw": "Berlin",
    "name:la": "Berolinum",
    "name:lb": "Berlin",
    "name:lg": "Berlin",
    "name:li": "Berlien",
    "name:lij": "Berlin",
    "name:lmo": "Berlin",
    "name:ln": "Berlin",
    "name:lt": "Berlynas",
    "name:lv": "Berlīne",
    "name:lzh": "柏林",
    "name:mg": "Berlin",
    "name:mk": "Берлин",
    "name:ml": "ബെര്‍ലിന്",
    "name:mn": "Берлин",
    "name:mr": "बर्लिन",
    "name:ms": "Berlin",
    "name:mt": "Berlin",
    "name:myv": "Берлин ош",
    "name:na": "Berlin",
    "name:nah": "Berlin",
    "name:nan": "Berlin",
    "name:nap": "Berlino",
    "name:nds": "Berlin",
    "name:nl": "Berlijn",
    "name:nn": "Berlin",
    "name:no": "Berlin",
    "name:nov": "Berlin",
    "name:nrm": "Bèrlîn",
    "name:oc": "Berlin",
    "name:os": "Берлин",
    "name:pam": "Berlin",
    "name:pdc": "Berlin",
    "name:pl": "Berlin",
    "name:pms": "Berlin",
    "name:prefix:city": "Kreisfreie Stadt",
    "name:prefix:state": "Land",
    "name:pt": "Berlim",
    "name:qu": "Berlin",
    "name:rm": "Berlin",
    "name:rmy": "Berlin",
    "name:ro": "Berlin",
    "name:roa-rup": "Berlin",
    "name:roa-tara": "Berline",
    "name:ru": "Берлин",
    "name:sah": "Берлин",
    "name:sc": "Berlinu",
    "name:scn": "Birlinu",
    "name:sco": "Berlin",
    "name:se": "Berlin",
    "name:sh": "Berlin",
    "name:short": "BE",
    "name:sk": "Berlín",
    "name:sl": "Berlin",
    "name:so": "Berlin",
    "name:sq": "Berlini",
    "name:sr": "Берлин",
    "name:stq": "Berlin",
    "name:su": "Berliini",
    "name:sv": "Berlin",
    "name:sw": "Berlin",
    "name:szl": "Berlin",
    "name:ta": "பெர்லின்",
    "name:te": "బెర్లిన్",
    "name:tet": "Berlín",
    "name:tg": "Берлин",
    "name:th": "เบอร์ลิน",
    "name:tl": "Berlin",
    "name:tpi": "Berlin",
    "name:tr": "Berlin",
    "name:tt": "Берлин",
    "name:ty": "Berlin",
    "name:tzl": "Berlin",
    "name:uk": "Берлін",
    "name:ur": "برلن",
    "name:uz": "Berlin",
    "name:vec": "Berlin",
    "name:vi": "Berlin",
    "name:vls": "Berlyn",
    "name:wo": "Berlin",
    "name:yi": "בערלין",
    "name:yo": "Berlin",
    "name:yue": "柏林",
    "name:zh": "柏林",
    "name:zu": "Berlin",
    "official_name": "Berlin",
    "official_status": "Land",
    "official_status:de": "Land",
    "official_status:en": "State",
    "official_status:ru": "земля",
    "old_name:vi": "Bá Linh",
    "place": "city",
    "population": "3769962",
    "ref:nuts": "DE3;DE30;DE300",
    "ref:nuts:1": "DE3",
    "ref:nuts:2": "DE30",
    "ref:nuts:3": "DE300",
    "report_problems:website": "https://ordnungsamt.berlin.de/",
    "source:population": "https://download.statistik-berlin-brandenburg.de/fa93e3bd19a2e885/a5ecfb2fff6a/SB_A01-05-00_2020h02_BE.pdf",
    "state_code": "BE",
    "type": "boundary",
    "website": "http://www.berlin.de",
    "wikidata": "Q64",
    "wikipedia": "de:Berlin"
  }
},
{
  "type": "node",
  "id": 1855529176,
  "lat": 52.4675006,
  "lon": 13.3018504
},
{
  "type": "node",
  "id": 1855529179,
  "lat": 52.4675071,
  "lon": 13.3018034
},
{
  "type": "node",
  "id": 1855529181,
  "lat": 52.4675671,
  "lon": 13.3018749
},
{
  "type": "node",
  "id": 1855529183,
  "lat": 52.4675735,
  "lon": 13.3018279
},
{
  "type": "node",
  "id": 26836010,
  "lat": 52.5285633,
  "lon": 13.2893740
},
{
  "type": "node",
  "id": 187643764,
  "lat": 52.5274113,
  "lon": 13.2874918
},
{
  "type": "node",
  "id": 187643769,
  "lat": 52.5278048,
  "lon": 13.2872153
},
{
  "type": "node",
  "id": 187643774,
  "lat": 52.5280461,
  "lon": 13.2878231,
  "tags": {
    "created_by": "JOSM"
  }
},
{
  "type": "node",
  "id": 187643779,
  "lat": 52.5283388,
  "lon": 13.2887962
},
{
  "type": "node",
  "id": 187643791,
  "lat": 52.5281037,
  "lon": 13.2893509,
  "tags": {
    "barrier": "gate",
    "bicycle": "no",
    "foot": "no"
  }
},
{
  "type": "node",
  "id": 1242574615,
  "lat": 52.5281044,
  "lon": 13.2880170
},
{
  "type": "node",
  "id": 1384321654,
  "lat": 52.5282116,
  "lon": 13.2896299
},
{
  "type": "node",
  "id": 1384322725,
  "lat": 52.5281028,
  "lon": 13.2894141
},
{
  "type": "node",
  "id": 1384323191,
  "lat": 52.5280841,
  "lon": 13.2894989
},
{
  "type": "node",
  "id": 1384323313,
  "lat": 52.5282386,
  "lon": 13.2896742
},
{
  "type": "node",
  "id": 1385780413,
  "lat": 52.5275334,
  "lon": 13.2878210,
  "tags": {
    "barrier": "gate",
    "bicycle": "no",
    "foot": "no"
  }
},
{
  "type": "node",
  "id": 1329344664,
  "lat": 52.5474940,
  "lon": 13.2728784
},
{
  "type": "node",
  "id": 1395881153,
  "lat": 52.5472470,
  "lon": 13.2729800
},
{
  "type": "node",
  "id": 1395881301,
  "lat": 52.5473291,
  "lon": 13.2735201
},
{
  "type": "node",
  "id": 1395881377,
  "lat": 52.5476293,
  "lon": 13.2728228
},
{
  "type": "node",
  "id": 1395881457,
  "lat": 52.5477114,
  "lon": 13.2733628
},
{
  "type": "node",
  "id": 9858712757,
  "lat": 52.4664666,
  "lon": 13.4121233
},
{
  "type": "node",
  "id": 9858712758,
  "lat": 52.4665584,
  "lon": 13.4113892
},
{
  "type": "node",
  "id": 9858712759,
  "lat": 52.4665291,
  "lon": 13.4113608
},
{
  "type": "node",
  "id": 9858712760,
  "lat": 52.4665264,
  "lon": 13.4112385
},
{
  "type": "node",
  "id": 9858712761,
  "lat": 52.4664586,
  "lon": 13.4111839
},
{
  "type": "node",
  "id": 9858712762,
  "lat": 52.4663827,
  "lon": 13.4111751
},
{
  "type": "node",
  "id": 9858712763,
  "lat": 52.4663774,
  "lon": 13.4118415
},
{
  "type": "node",
  "id": 9858712764,
  "lat": 52.4663920,
  "lon": 13.4120993
},
{
  "type": "node",
  "id": 369767948,
  "lat": 52.6261974,
  "lon": 13.3754539
},
{
  "type": "node",
  "id": 369767949,
  "lat": 52.6263678,
  "lon": 13.3755358
},
{
  "type": "node",
  "id": 369767951,
  "lat": 52.6264880,
  "lon": 13.3758838
},
{
  "type": "node",
  "id": 369767962,
  "lat": 52.6279249,
  "lon": 13.3755597
},
{
  "type": "node",
  "id": 369767964,
  "lat": 52.6279086,
  "lon": 13.3754490
},
{
  "type": "node",
  "id": 369767966,
  "lat": 52.6274442,
  "lon": 13.3748253
},
{
  "type": "node",
  "id": 369767968,
  "lat": 52.6272034,
  "lon": 13.3741530
},
{
  "type": "node",
  "id": 369767973,
  "lat": 52.6264425,
  "lon": 13.3743541
},
{
  "type": "node",
  "id": 369767974,
  "lat": 52.6264103,
  "lon": 13.3743730
},
{
  "type": "node",
  "id": 669949928,
  "lat": 52.6278612,
  "lon": 13.3753465
},
{
  "type": "node",
  "id": 669949929,
  "lat": 52.6277952,
  "lon": 13.3752662
},
{
  "type": "node",
  "id": 669949931,
  "lat": 52.6276868,
  "lon": 13.3751588
},
{
  "type": "node",
  "id": 669949933,
  "lat": 52.6275365,
  "lon": 13.3750064
},
{
  "type": "node",
  "id": 669949936,
  "lat": 52.6273552,
  "lon": 13.3746178
},
{
  "type": "node",
  "id": 669949938,
  "lat": 52.6272597,
  "lon": 13.3743173
},
{
  "type": "node",
  "id": 669949941,
  "lat": 52.6271522,
  "lon": 13.3740492
},
{
  "type": "node",
  "id": 669949944,
  "lat": 52.6270848,
  "lon": 13.3739848
},
{
  "type": "node",
  "id": 669949946,
  "lat": 52.6270208,
  "lon": 13.3739456
},
{
  "type": "node",
  "id": 669949948,
  "lat": 52.6269542,
  "lon": 13.3739795
},
{
  "type": "node",
  "id": 669949950,
  "lat": 52.6268525,
  "lon": 13.3741003
},
{
  "type": "node",
  "id": 669949952,
  "lat": 52.6267499,
  "lon": 13.3742063
},
{
  "type": "node",
  "id": 669949953,
  "lat": 52.6266659,
  "lon": 13.3742514
},
{
  "type": "node",
  "id": 669949954,
  "lat": 52.6265790,
  "lon": 13.3742889
},
{
  "type": "node",
  "id": 669949955,
  "lat": 52.6265329,
  "lon": 13.3743113
},
{
  "type": "node",
  "id": 669949956,
  "lat": 52.6264834,
  "lon": 13.3743391
},
{
  "type": "node",
  "id": 669949963,
  "lat": 52.6262205,
  "lon": 13.3747386
},
{
  "type": "node",
  "id": 669949964,
  "lat": 52.6261713,
  "lon": 13.3748522
},
{
  "type": "node",
  "id": 669949965,
  "lat": 52.6262044,
  "lon": 13.3752790
},
{
  "type": "node",
  "id": 669949966,
  "lat": 52.6264177,
  "lon": 13.3756228
},
{
  "type": "node",
  "id": 6937618457,
  "lat": 52.6263467,
  "lon": 13.3745490
},
{
  "type": "node",
  "id": 6937618459,
  "lat": 52.6261788,
  "lon": 13.3749621
},
{
  "type": "node",
  "id": 8046408567,
  "lat": 52.6265453,
  "lon": 13.3743044
},
{
  "type": "node",
  "id": 369767954,
  "lat": 52.6265296,
  "lon": 13.3762418
},
{
  "type": "node",
  "id": 369767956,
  "lat": 52.6267165,
  "lon": 13.3763151
},
{
  "type": "node",
  "id": 369767957,
  "lat": 52.6270598,
  "lon": 13.3762362
},
{
  "type": "node",
  "id": 369767959,
  "lat": 52.6279292,
  "lon": 13.3759148
},
{
  "type": "node",
  "id": 669949919,
  "lat": 52.6266268,
  "lon": 13.3763022
},
{
  "type": "node",
  "id": 669949920,
  "lat": 52.6268412,
  "lon": 13.3762966
},
{
  "type": "node",
  "id": 669949921,
  "lat": 52.6271575,
  "lon": 13.3762041
},
{
  "type": "node",
  "id": 669949922,
  "lat": 52.6272813,
  "lon": 13.3762309
},
{
  "type": "node",
  "id": 669949923,
  "lat": 52.6274180,
  "lon": 13.3762738
},
{
  "type": "node",
  "id": 669949924,
  "lat": 52.6275311,
  "lon": 13.3762492
},
{
  "type": "node",
  "id": 669949925,
  "lat": 52.6276501,
  "lon": 13.3761781
},
{
  "type": "node",
  "id": 669949926,
  "lat": 52.6277920,
  "lon": 13.3760817
},
{
  "type": "node",
  "id": 669949927,
  "lat": 52.6278868,
  "lon": 13.3760128
},
{
  "type": "node",
  "id": 6937618458,
  "lat": 52.6264980,
  "lon": 13.3761397
},
{
  "type": "node",
  "id": 166902997,
  "lat": 52.6334501,
  "lon": 13.4049936
},
{
  "type": "node",
  "id": 3099114171,
  "lat": 52.6334879,
  "lon": 13.4045749
},
{
  "type": "node",
  "id": 2180611073,
  "lat": 52.6368827,
  "lon": 13.4018207
},
{
  "type": "node",
  "id": 2180611103,
  "lat": 52.6375228,
  "lon": 13.4011756
},
{
  "type": "node",
  "id": 3099114200,
  "lat": 52.6371118,
  "lon": 13.4016115
},
{
  "type": "node",
  "id": 3099114201,
  "lat": 52.6376576,
  "lon": 13.4010260
},
{
  "type": "node",
  "id": 8517770175,
  "lat": 52.6381505,
  "lon": 13.4009827
},
{
  "type": "node",
  "id": 8517770176,
  "lat": 52.6389673,
  "lon": 13.4007439
},
{
  "type": "node",
  "id": 8517770178,
  "lat": 52.6390158,
  "lon": 13.4007667
},
{
  "type": "node",
  "id": 166902994,
  "lat": 52.6372145,
  "lon": 13.4078652
},
{
  "type": "node",
  "id": 542558576,
  "lat": 52.6367957,
  "lon": 13.4075666
},
{
  "type": "node",
  "id": 662811892,
  "lat": 52.6376433,
  "lon": 13.4084651
},
{
  "type": "node",
  "id": 2180611063,
  "lat": 52.6363599,
  "lon": 13.4022143
},
{
  "type": "node",
  "id": 3099114188,
  "lat": 52.6353139,
  "lon": 13.4029708
},
{
  "type": "node",
  "id": 8517770177,
  "lat": 52.6396372,
  "lon": 13.4024579
},
{
  "type": "node",
  "id": 8517770179,
  "lat": 52.6401325,
  "lon": 13.4038236
},
{
  "type": "node",
  "id": 8517770180,
  "lat": 52.6401666,
  "lon": 13.4038257
},
{
  "type": "node",
  "id": 8517770181,
  "lat": 52.6401790,
  "lon": 13.4038679
},
{
  "type": "node",
  "id": 8517770182,
  "lat": 52.6409373,
  "lon": 13.4040139
},
{
  "type": "node",
  "id": 8517770183,
  "lat": 52.6408965,
  "lon": 13.4040902
},
{
  "type": "node",
  "id": 166902992,
  "lat": 52.6378769,
  "lon": 13.4087621
},
{
  "type": "node",
  "id": 4870803345,
  "lat": 52.6387612,
  "lon": 13.4093119,
  "tags": {
    "access": "private",
    "barrier": "gate"
  }
},
{
  "type": "node",
  "id": 4870803346,
  "lat": 52.6385743,
  "lon": 13.4089651,
  "tags": {
    "access": "private",
    "barrier": "gate"
  }
},
{
  "type": "node",
  "id": 4870803347,
  "lat": 52.6386114,
  "lon": 13.4088407,
  "tags": {
    "access": "private",
    "barrier": "gate"
  }
},
{
  "type": "node",
  "id": 4870804007,
  "lat": 52.6388446,
  "lon": 13.4089169
},
{
  "type": "node",
  "id": 4870804008,
  "lat": 52.6386305,
  "lon": 13.4087836
},
{
  "type": "node",
  "id": 8039709171,
  "lat": 52.6386084,
  "lon": 13.4096036
},
{
  "type": "node",
  "id": 8039709172,
  "lat": 52.6387051,
  "lon": 13.4094016
},
{
  "type": "node",
  "id": 8517770154,
  "lat": 52.6388697,
  "lon": 13.4088507
},
{
  "type": "node",
  "id": 8517770155,
  "lat": 52.6392569,
  "lon": 13.4091313
},
{
  "type": "node",
  "id": 8517770156,
  "lat": 52.6402902,
  "lon": 13.4099216
},
{
  "type": "node",
  "id": 8517770157,
  "lat": 52.6402823,
  "lon": 13.4099522
},
{
  "type": "node",
  "id": 8517770158,
  "lat": 52.6406110,
  "lon": 13.4101939
},
{
  "type": "node",
  "id": 8517770159,
  "lat": 52.6409291,
  "lon": 13.4104102
},
{
  "type": "node",
  "id": 8517770160,
  "lat": 52.6410631,
  "lon": 13.4104936
},
{
  "type": "node",
  "id": 8517770161,
  "lat": 52.6413519,
  "lon": 13.4107010
},
{
  "type": "node",
  "id": 3151488344,
  "lat": 52.6427478,
  "lon": 13.4049671
},
{
  "type": "node",
  "id": 3151488345,
  "lat": 52.6428748,
  "lon": 13.4063946
},
{
  "type": "node",
  "id": 3314841214,
  "lat": 52.6423802,
  "lon": 13.4034372
},
{
  "type": "node",
  "id": 8517770164,
  "lat": 52.6425010,
  "lon": 13.4084681
},
{
  "type": "node",
  "id": 8517770165,
  "lat": 52.6427873,
  "lon": 13.4075418
},
{
  "type": "node",
  "id": 8517770166,
  "lat": 52.6428359,
  "lon": 13.4073411
},
{
  "type": "node",
  "id": 8517770167,
  "lat": 52.6428730,
  "lon": 13.4071703
},
{
  "type": "node",
  "id": 8517770168,
  "lat": 52.6428941,
  "lon": 13.4070301
},
{
  "type": "node",
  "id": 8517770169,
  "lat": 52.6428977,
  "lon": 13.4068532
},
{
  "type": "node",
  "id": 8517770170,
  "lat": 52.6428623,
  "lon": 13.4060317
},
{
  "type": "node",
  "id": 8517770171,
  "lat": 52.6428245,
  "lon": 13.4055316
},
{
  "type": "node",
  "id": 8517770172,
  "lat": 52.6426382,
  "lon": 13.4040298
},
{
  "type": "node",
  "id": 8517770173,
  "lat": 52.6426853,
  "lon": 13.4043010
},
{
  "type": "node",
  "id": 8517770174,
  "lat": 52.6425877,
  "lon": 13.4038276
},
{
  "type": "node",
  "id": 8517770184,
  "lat": 52.6418133,
  "lon": 13.4036516
},
{
  "type": "node",
  "id": 3151488342,
  "lat": 52.6421914,
  "lon": 13.4092167
},
{
  "type": "node",
  "id": 8517770162,
  "lat": 52.6418788,
  "lon": 13.4098396
},
{
  "type": "node",
  "id": 8517770163,
  "lat": 52.6419839,
  "lon": 13.4096463
},
{
  "type": "node",
  "id": 1395209149,
  "lat": 52.4876879,
  "lon": 13.4980155
},
{
  "type": "node",
  "id": 1395209152,
  "lat": 52.4877911,
  "lon": 13.4982975
},
{
  "type": "node",
  "id": 1395209154,
  "lat": 52.4879364,
  "lon": 13.4977702
},
{
  "type": "node",
  "id": 1395209157,
  "lat": 52.4880396,
  "lon": 13.4980523
},
{
  "type": "node",
  "id": 2287214633,
  "lat": 52.4864290,
  "lon": 13.4986256
},
{
  "type": "node",
  "id": 2287214639,
  "lat": 52.4867045,
  "lon": 13.4983378
},
{
  "type": "node",
  "id": 2287214641,
  "lat": 52.4869582,
  "lon": 13.4999915
},
{
  "type": "node",
  "id": 2287214643,
  "lat": 52.4872337,
  "lon": 13.4997037
},
{
  "type": "node",
  "id": 4181958121,
  "lat": 52.4875377,
  "lon": 13.4986950
},
{
  "type": "node",
  "id": 4181958127,
  "lat": 52.4877850,
  "lon": 13.4984465
},
{
  "type": "node",
  "id": 4181958129,
  "lat": 52.4878917,
  "lon": 13.4996406
},
{
  "type": "node",
  "id": 4181958133,
  "lat": 52.4881390,
  "lon": 13.4993921
},
{
  "type": "node",
  "id": 281880835,
  "lat": 52.5226572,
  "lon": 13.5124104
},
{
  "type": "node",
  "id": 656632844,
  "lat": 52.5218152,
  "lon": 13.5118679
},
{
  "type": "node",
  "id": 4779127619,
  "lat": 52.5225585,
  "lon": 13.5121090,
  "tags": {
    "barrier": "gate"
  }
},
{
  "type": "node",
  "id": 4779128622,
  "lat": 52.5224613,
  "lon": 13.5118448
},
{
  "type": "node",
  "id": 5046462252,
  "lat": 52.5225735,
  "lon": 13.5121561
},
{
  "type": "node",
  "id": 6509132276,
  "lat": 52.5225087,
  "lon": 13.5119545
},
{
  "type": "node",
  "id": 6556873739,
  "lat": 52.5219018,
  "lon": 13.5125575
},
{
  "type": "node",
  "id": 10203428993,
  "lat": 52.5226398,
  "lon": 13.5125536
},
{
  "type": "node",
  "id": 55185676,
  "lat": 52.5225774,
  "lon": 13.5147253
},
{
  "type": "node",
  "id": 4779127620,
  "lat": 52.5226407,
  "lon": 13.5141733
},
{
  "type": "node",
  "id": 8530213732,
  "lat": 52.5219414,
  "lon": 13.5143440
},
{
  "type": "node",
  "id": 8530213733,
  "lat": 52.5219415,
  "lon": 13.5143141,
  "tags": {
    "barrier": "gate"
  }
},
{
  "type": "node",
  "id": 4398099024,
  "lat": 52.5488792,
  "lon": 13.5265807
},
{
  "type": "node",
  "id": 4398099026,
  "lat": 52.5495346,
  "lon": 13.5263302
},
{
  "type": "node",
  "id": 4975579292,
  "lat": 52.5085719,
  "lon": 13.5658820,
  "tags": {
    "access": "private",
    "barrier": "gate"
  }
},
{
  "type": "node",
  "id": 4975579293,
  "lat": 52.5077571,
  "lon": 13.5654440
},
{
  "type": "node",
  "id": 4975579294,
  "lat": 52.5076809,
  "lon": 13.5653740
},
{
  "type": "node",
  "id": 4975579295,
  "lat": 52.5079186,
  "lon": 13.5651124
},
{
  "type": "node",
  "id": 270647694,
  "lat": 52.5091146,
  "lon": 13.5665213
},
{
  "type": "node",
  "id": 270647697,
  "lat": 52.5092906,
  "lon": 13.5675227
},
{
  "type": "node",
  "id": 270647698,
  "lat": 52.5089550,
  "lon": 13.5671436
},
{
  "type": "node",
  "id": 558702379,
  "lat": 52.5091926,
  "lon": 13.5679953
},
{
  "type": "node",
  "id": 558702380,
  "lat": 52.5093437,
  "lon": 13.5680795
},
{
  "type": "node",
  "id": 558702381,
  "lat": 52.5088354,
  "lon": 13.5708301
},
{
  "type": "node",
  "id": 558702382,
  "lat": 52.5091338,
  "lon": 13.5712209
},
{
  "type": "node",
  "id": 558702383,
  "lat": 52.5092802,
  "lon": 13.5712984
},
{
  "type": "node",
  "id": 558703237,
  "lat": 52.5090988,
  "lon": 13.5693601
},
{
  "type": "node",
  "id": 558708041,
  "lat": 52.5089163,
  "lon": 13.5716039
},
{
  "type": "node",
  "id": 558708043,
  "lat": 52.5086447,
  "lon": 13.5711748
},
{
  "type": "node",
  "id": 558708044,
  "lat": 52.5086133,
  "lon": 13.5709344
},
{
  "type": "node",
  "id": 558708050,
  "lat": 52.5087244,
  "lon": 13.5698724
},
{
  "type": "node",
  "id": 558708051,
  "lat": 52.5087894,
  "lon": 13.5695926
},
{
  "type": "node",
  "id": 558708053,
  "lat": 52.5088112,
  "lon": 13.5692184
},
{
  "type": "node",
  "id": 1286254791,
  "lat": 52.5072494,
  "lon": 13.5669862
},
{
  "type": "node",
  "id": 1638991841,
  "lat": 52.5089280,
  "lon": 13.5669914
},
{
  "type": "node",
  "id": 2540998961,
  "lat": 52.5091777,
  "lon": 13.5718112
},
{
  "type": "node",
  "id": 4975579276,
  "lat": 52.5089879,
  "lon": 13.5699791,
  "tags": {
    "barrier": "gate"
  }
},
{
  "type": "node",
  "id": 4975579296,
  "lat": 52.5073513,
  "lon": 13.5665565
},
{
  "type": "node",
  "id": 56007300,
  "lat": 52.5391406,
  "lon": 13.5314650,
  "tags": {
    "access": "customers",
    "barrier": "gate",
    "motorcar": "yes",
    "motorcycle": "yes"
  }
},
{
  "type": "node",
  "id": 281879855,
  "lat": 52.5394900,
  "lon": 13.5313601
},
{
  "type": "node",
  "id": 281879857,
  "lat": 52.5395167,
  "lon": 13.5315180
},
{
  "type": "node",
  "id": 281879859,
  "lat": 52.5394335,
  "lon": 13.5315708
},
{
  "type": "node",
  "id": 281879862,
  "lat": 52.5393950,
  "lon": 13.5314077
},
{
  "type": "node",
  "id": 281880085,
  "lat": 52.5406149,
  "lon": 13.5311181
},
{
  "type": "node",
  "id": 4398098995,
  "lat": 52.5389658,
  "lon": 13.5309195
},
{
  "type": "node",
  "id": 4398098996,
  "lat": 52.5389768,
  "lon": 13.5305279
},
{
  "type": "node",
  "id": 4398098997,
  "lat": 52.5391572,
  "lon": 13.5315481
},
{
  "type": "node",
  "id": 4398098999,
  "lat": 52.5394858,
  "lon": 13.5300707
},
{
  "type": "node",
  "id": 4398099000,
  "lat": 52.5404274,
  "lon": 13.5294916
},
{
  "type": "node",
  "id": 4398099003,
  "lat": 52.5409043,
  "lon": 13.5293060
},
{
  "type": "node",
  "id": 4398099007,
  "lat": 52.5423933,
  "lon": 13.5287624
},
{
  "type": "node",
  "id": 4398099010,
  "lat": 52.5427564,
  "lon": 13.5286716
},
{
  "type": "node",
  "id": 8774954178,
  "lat": 52.5433587,
  "lon": 13.5286067
},
{
  "type": "node",
  "id": 4398099013,
  "lat": 52.5436642,
  "lon": 13.5285147
},
{
  "type": "node",
  "id": 4398099014,
  "lat": 52.5441719,
  "lon": 13.5283089
},
{
  "type": "node",
  "id": 4398099015,
  "lat": 52.5447147,
  "lon": 13.5280990
},
{
  "type": "node",
  "id": 4398099017,
  "lat": 52.5453961,
  "lon": 13.5278688
},
{
  "type": "node",
  "id": 4398099020,
  "lat": 52.5466226,
  "lon": 13.5274007
},
{
  "type": "node",
  "id": 4398099022,
  "lat": 52.5477052,
  "lon": 13.5270241
},
{
  "type": "node",
  "id": 4398099023,
  "lat": 52.5482657,
  "lon": 13.5267962
},
{
  "type": "node",
  "id": 4398099029,
  "lat": 52.5505612,
  "lon": 13.5257650
},
{
  "type": "node",
  "id": 4398099030,
  "lat": 52.5508897,
  "lon": 13.5256435
},
{
  "type": "node",
  "id": 4398099032,
  "lat": 52.5520916,
  "lon": 13.5253821
},
{
  "type": "node",
  "id": 4398099035,
  "lat": 52.5525950,
  "lon": 13.5253851
},
{
  "type": "node",
  "id": 4398099036,
  "lat": 52.5528108,
  "lon": 13.5253925
},
{
  "type": "node",
  "id": 4398099037,
  "lat": 52.5529377,
  "lon": 13.5264028
},
{
  "type": "node",
  "id": 4398099038,
  "lat": 52.5536650,
  "lon": 13.5255402
},
{
  "type": "node",
  "id": 4398099039,
  "lat": 52.5541660,
  "lon": 13.5255333
},
{
  "type": "node",
  "id": 4398099040,
  "lat": 52.5541909,
  "lon": 13.5257076
},
{
  "type": "node",
  "id": 3021043848,
  "lat": 52.5826171,
  "lon": 13.4782195
},
{
  "type": "node",
  "id": 5873814583,
  "lat": 52.5827287,
  "lon": 13.4769833
},
{
  "type": "node",
  "id": 6457876225,
  "lat": 52.5827551,
  "lon": 13.4769481
},
{
  "type": "node",
  "id": 3021043849,
  "lat": 52.5829741,
  "lon": 13.4744769
},
{
  "type": "node",
  "id": 3021043850,
  "lat": 52.5837072,
  "lon": 13.4785086
},
{
  "type": "node",
  "id": 3021043851,
  "lat": 52.5840177,
  "lon": 13.4742756
},
{
  "type": "node",
  "id": 3021043852,
  "lat": 52.5839998,
  "lon": 13.4760460
},
{
  "type": "node",
  "id": 3021043853,
  "lat": 52.5841052,
  "lon": 13.4750408
},
{
  "type": "node",
  "id": 4398099033,
  "lat": 52.5520949,
  "lon": 13.5268036
},
{
  "type": "node",
  "id": 4136568426,
  "lat": 52.5660827,
  "lon": 13.5428044
},
{
  "type": "node",
  "id": 4136568431,
  "lat": 52.5661379,
  "lon": 13.5427959
},
{
  "type": "node",
  "id": 4136568439,
  "lat": 52.5663335,
  "lon": 13.5434439
},
{
  "type": "node",
  "id": 4136568448,
  "lat": 52.5666358,
  "lon": 13.5443129
},
{
  "type": "node",
  "id": 4136568454,
  "lat": 52.5667638,
  "lon": 13.5446159
},
{
  "type": "node",
  "id": 5264079320,
  "lat": 52.5665953,
  "lon": 13.5442201,
  "tags": {
    "barrier": "gate"
  }
},
{
  "type": "node",
  "id": 5264089121,
  "lat": 52.5665026,
  "lon": 13.5440077
},
{
  "type": "node",
  "id": 4136568360,
  "lat": 52.5652284,
  "lon": 13.5467483
},
{
  "type": "node",
  "id": 4136568387,
  "lat": 52.5656516,
  "lon": 13.5472931
},
{
  "type": "node",
  "id": 92612962,
  "lat": 52.4460081,
  "lon": 13.7461468
},
{
  "type": "node",
  "id": 92612967,
  "lat": 52.4473999,
  "lon": 13.7493354
},
{
  "type": "node",
  "id": 92612970,
  "lat": 52.4479142,
  "lon": 13.7466348
},
{
  "type": "node",
  "id": 7904860423,
  "lat": 52.4476272,
  "lon": 13.7479752
},
{
  "type": "node",
  "id": 92612964,
  "lat": 52.4453424,
  "lon": 13.7525826
},
{
  "type": "node",
  "id": 92612971,
  "lat": 52.4478428,
  "lon": 13.7517613
},
{
  "type": "node",
  "id": 92612976,
  "lat": 52.4474507,
  "lon": 13.7512235
},
{
  "type": "node",
  "id": 92613002,
  "lat": 52.4456578,
  "lon": 13.7539252
},
{
  "type": "node",
  "id": 277521946,
  "lat": 52.4458631,
  "lon": 13.7544674
},
{
  "type": "node",
  "id": 277675181,
  "lat": 52.4473110,
  "lon": 13.7538281
},
{
  "type": "node",
  "id": 1166711290,
  "lat": 52.4478428,
  "lon": 13.7515351
},
{
  "type": "node",
  "id": 1166711562,
  "lat": 52.4475735,
  "lon": 13.7533575
},
{
  "type": "node",
  "id": 1830214064,
  "lat": 52.4459398,
  "lon": 13.7545102,
  "tags": {
    "access": "private",
    "barrier": "gate"
  }
},
{
  "type": "node",
  "id": 7904860424,
  "lat": 52.4461679,
  "lon": 13.7540635
},
{
  "type": "node",
  "id": 7904860425,
  "lat": 52.4464856,
  "lon": 13.7540974
},
{
  "type": "node",
  "id": 7904860426,
  "lat": 52.4459760,
  "lon": 13.7545317
},
{
  "type": "node",
  "id": 7904860427,
  "lat": 52.4460372,
  "lon": 13.7542000
},
{
  "type": "node",
  "id": 7904860428,
  "lat": 52.4457780,
  "lon": 13.7543606
},
{
  "type": "node",
  "id": 7904860429,
  "lat": 52.4457443,
  "lon": 13.7541537
},
{
  "type": "node",
  "id": 7904860432,
  "lat": 52.4473659,
  "lon": 13.7505496
},
{
  "type": "node",
  "id": 7904860433,
  "lat": 52.4473515,
  "lon": 13.7499131
}

  ]
}
