{
  "version": 0.6,
  "generator": "Overpass API 0.7.61.5 4133829e",
  "osm3s": {
    "timestamp_osm_base": "2023-09-07T22:36:45Z",
    "timestamp_areas_base": "2023-09-07T17:18:13Z",
    "copyright": "The data included in this document is from www.openstreetmap.org. The data is made available under ODbL."
  },
  "elements": [

{
  "type": "area",
  "id": 3600062504,
  "tags": {
    "ISO3166-2": "DE-BB",
    "TMC:cid_58:tabcd_1:Class": "Area",
    "TMC:cid_58:tabcd_1:LCLversion": "12.0",
    "TMC:cid_58:tabcd_1:LocationCode": "267",
    "admin_level": "4",
    "alt_name:cs": "Země Braniborsko",
    "alt_name:pt": "Brandeburgo",
    "border_type": "state",
    "boundary": "administrative",
    "de:amtlicher_gemeindeschluessel": "12",
    "de:regionalschluessel": "12",
    "name": "Brandenburg",
    "name:am": "ብራንደንቡርግ",
    "name:an": "Brandemburgo",
    "name:ar": "براندنبورغ",
    "name:ay": "Brandenburg suyu",
    "name:az": "Brandenburq",
    "name:ba": "Бранденбург",
    "name:be": "Брандэнбург",
    "name:bg": "Бранденбург",
    "name:bn": "ব্রান্ডেনবুর্গ",
    "name:ca": "Brandenburg",
    "name:ce": "Бранденбург",
    "name:cs": "Braniborsko",
    "name:cv": "Бранденбург",
    "name:de": "Brandenburg",
    "name:el": "Βρανδεμβούργο",
    "name:en": "Brandenburg",
    "name:eo": "Brandenburgio",
    "name:es": "Brandemburgo",
    "name:eu": "Brandenburgo",
    "name:fa": "براندنبورگ",
    "name:fr": "Brandebourg",
    "name:fy": "Brandenburch",
    "name:gl": "Brandeburgo",
    "name:gn": "Brandeburgo",
    "name:he": "ברנדנבורג",
    "name:hi": "ब्रैंडेनबर्ग",
    "name:hsb": "Braniborska",
    "name:hu": "Brandenburg",
    "name:hy": "Բրանդենբուրգ",
    "name:ia": "Brandeburgo",
    "name:ie": "Brandenburgia",
    "name:is": "Brandenborg",
    "name:it": "Brandeburgo",
    "name:ja": "ブランデンブルク州",
    "name:ka": "ბრანდენბურგი",
    "name:kk": "Бранденбург",
    "name:ko": "브란덴부르크 주",
    "name:la": "Brandenburgum",
    "name:lb": "Brandenburg",
    "name:li": "Brandeburg",
    "name:lt": "Brandenburgas",
    "name:lv": "Brandenburga",
    "name:mk": "Бранденбург",
    "name:mn": "Бранденбург",
    "name:mr": "ब्रांडेनबुर्ग",
    "name:ne": "ब्रान्डेनबर्ग",
    "name:nl": "Brandenburg",
    "name:oc": "Brandeborg",
    "name:os": "Бранденбург",
    "name:pa": "ਬ੍ਰਾਂਡਨਬੁਰਕ",
    "name:pl": "Brandeburgia",
    "name:prefix": "Bundesland",
    "name:ps": "براندنبورگ",
    "name:pt": "Brandemburgo",
    "name:ru": "Бранденбург",
    "name:sk": "Brandenbursko",
    "name:sq": "Brandenburgu",
    "name:sr": "Бранденбург",
    "name:th": "รัฐบรันเดินบวร์ค",
    "name:tl": "Brandeburgo",
    "name:uk": "Бранденбург",
    "name:ur": "برندنبرگ",
    "name:vo": "Brandänburgän",
    "name:yi": "בראנדנבורג",
    "name:zh": "勃兰登堡州",
    "name:zh-Hans": "勃兰登堡州",
    "name:zh-Hant": "布蘭登堡州",
    "ref": "BB",
    "ref:nuts": "DE4;DE40",
    "ref:nuts:1": "DE4",
    "ref:nuts:2": "DE40",
    "type": "boundary",
    "wikidata": "Q1208",
    "wikipedia": "de:Brandenburg"
  }
}

  ]
}
